{
"type": "FeatureCollection",
"name": "sark-green-plots",
"crs": { "type": "name", "properties": { "name": "urn:ogc:def:crs:OGC:1.3:CRS84" } },
"features": [
{"type":"Feature","properties":{"fid":1,"sq_yards":"394","plot_no":"01","facing":"S/E","status":"AVL","per_sq_ft_price":null,"per_sq_yard_price":null},"geometry":{"type":"Polygon","coordinates":[[[78.453368346296273,17.206385013551142],[78.453583613301277,17.206353214658176],[78.453554763084128,17.206206939680126],[78.453333726035694,17.206251458163951],[78.453368346296273,17.206385013551142]]]}},
{"type":"Feature","properties":{"fid":2,"sq_yards":"394","plot_no":"01","facing":"S/E","status":"AVL","per_sq_ft_price":null,"per_sq_yard_price":null},"geometry":{"type":"Polygon","coordinates":[[[78.453396849103072,17.206519584641082],[78.453612116108076,17.206487785748116],[78.453583265890927,17.206341510770066],[78.453362228842494,17.206386029253892],[78.453396849103072,17.206519584641082]]]}},
{"type":"Feature","properties":{"fid":3,"sq_yards":"394","plot_no":"01","facing":"S/E","status":"AVL","per_sq_ft_price":null,"per_sq_yard_price":null},"geometry":{"type":"Polygon","coordinates":[[[78.453425351909871,17.206654155731023],[78.453640618914875,17.206622356838057],[78.453611768697726,17.206476081860007],[78.453390731649293,17.206520600343833],[78.453425351909871,17.206654155731023]]]}},
{"type":"Feature","properties":{"fid":4,"sq_yards":"394","plot_no":"01","facing":"S/E","status":"AVL","per_sq_ft_price":null,"per_sq_yard_price":null},"geometry":{"type":"Polygon","coordinates":[[[78.45345385471667,17.206788726820964],[78.453669121721674,17.206756927927998],[78.453640271504526,17.206610652949948],[78.453419234456092,17.206655171433773],[78.45345385471667,17.206788726820964]]]}},
{"type":"Feature","properties":{"fid":5,"sq_yards":"394","plot_no":"01","facing":"S/E","status":"AVL","per_sq_ft_price":null,"per_sq_yard_price":null},"geometry":{"type":"Polygon","coordinates":[[[78.45348235752347,17.206923297910905],[78.453697624528473,17.206891499017939],[78.453668774311325,17.206745224039889],[78.453447737262891,17.206789742523714],[78.45348235752347,17.206923297910905]]]}},
{"type":"Feature","properties":{"fid":6,"sq_yards":"394","plot_no":"01","facing":"S/E","status":"AVL","per_sq_ft_price":null,"per_sq_yard_price":null},"geometry":{"type":"Polygon","coordinates":[[[78.453510860330269,17.207057869000845],[78.453726127335273,17.207026070107879],[78.453697277118124,17.206879795129829],[78.453476240069691,17.206924313613655],[78.453510860330269,17.207057869000845]]]}},
{"type":"Feature","properties":{"fid":7,"sq_yards":"394","plot_no":"01","facing":"S/E","status":"AVL","per_sq_ft_price":null,"per_sq_yard_price":null},"geometry":{"type":"Polygon","coordinates":[[[78.453539363137068,17.207192440090786],[78.453754630142072,17.20716064119782],[78.453725779924923,17.20701436621977],[78.45350474287649,17.207058884703596],[78.453539363137068,17.207192440090786]]]}},
{"type":"Feature","properties":{"fid":8,"sq_yards":"394","plot_no":"01","facing":"S/E","status":"AVL","per_sq_ft_price":null,"per_sq_yard_price":null},"geometry":{"type":"Polygon","coordinates":[[[78.453567865943867,17.207327011180727],[78.453783132948871,17.207295212287761],[78.453754282731722,17.207148937309711],[78.453533245683289,17.207193455793536],[78.453567865943867,17.207327011180727]]]}},
{"type":"Feature","properties":{"fid":9,"sq_yards":"445","plot_no":"016","facing":"S/W","status":"AVL","per_sq_ft_price":null,"per_sq_yard_price":null},"geometry":{"type":"Polygon","coordinates":[[[78.453879035537327,17.206306525413137],[78.453844221500873,17.206112419098407],[78.453663046413226,17.206149747251668],[78.453702123392901,17.206327904243047],[78.453879035537327,17.206306525413137]]]}},
{"type":"Feature","properties":{"fid":10,"sq_yards":"445","plot_no":"016","facing":"S/W","status":"AVL","per_sq_ft_price":null,"per_sq_yard_price":null},"geometry":{"type":"Polygon","coordinates":[[[78.454053105719595,17.206272590741111],[78.454018291683141,17.206078484426381],[78.453837116595494,17.206115812579643],[78.453876193575169,17.206293969571021],[78.454053105719595,17.206272590741111]]]}},
{"type":"Feature","properties":{"fid":11,"sq_yards":"267","plot_no":"015","facing":"W","status":"AVL","per_sq_ft_price":null,"per_sq_yard_price":null},"geometry":{"type":"Polygon","coordinates":[[[78.453726280071265,17.206441415608086],[78.453898574027178,17.206413419537981],[78.453879035537327,17.206306525413137],[78.453704077241909,17.206339611696478],[78.453726280071265,17.206441415608086]]]}},
{"type":"Feature","properties":{"fid":12,"sq_yards":"267","plot_no":"015","facing":"W","status":"AVL","per_sq_ft_price":null,"per_sq_yard_price":null},"geometry":{"type":"Polygon","coordinates":[[[78.453746911074873,17.206551215453668],[78.453919205030786,17.206523219383563],[78.453899666540934,17.206416325258719],[78.453724708245517,17.20644941154206],[78.453746911074873,17.206551215453668]]]}},
{"type":"Feature","properties":{"fid":13,"sq_yards":"267","plot_no":"015","facing":"W","status":"AVL","per_sq_ft_price":null,"per_sq_yard_price":null},"geometry":{"type":"Polygon","coordinates":[[[78.453767542078481,17.20666101529925],[78.453939836034394,17.206633019229145],[78.453920297544542,17.2065261251043],[78.453745339249124,17.206559211387642],[78.453767542078481,17.20666101529925]]]}},
{"type":"Feature","properties":{"fid":14,"sq_yards":"267","plot_no":"015","facing":"W","status":"AVL","per_sq_ft_price":null,"per_sq_yard_price":null},"geometry":{"type":"Polygon","coordinates":[[[78.453788173082089,17.206770815144832],[78.453960467038002,17.206742819074726],[78.45394092854815,17.206635924949882],[78.453765970252732,17.206669011233224],[78.453788173082089,17.206770815144832]]]}},
{"type":"Feature","properties":{"fid":15,"sq_yards":"267","plot_no":"015","facing":"W","status":"AVL","per_sq_ft_price":null,"per_sq_yard_price":null},"geometry":{"type":"Polygon","coordinates":[[[78.453808804085696,17.206880614990414],[78.453981098041609,17.206852618920308],[78.453961559551757,17.206745724795464],[78.45378660125634,17.206778811078806],[78.453808804085696,17.206880614990414]]]}},
{"type":"Feature","properties":{"fid":16,"sq_yards":"267","plot_no":"015","facing":"W","status":"AVL","per_sq_ft_price":null,"per_sq_yard_price":null},"geometry":{"type":"Polygon","coordinates":[[[78.453829435089304,17.206990414835996],[78.454001729045217,17.20696241876589],[78.453982190555365,17.206855524641046],[78.453807232259948,17.206888610924388],[78.453829435089304,17.206990414835996]]]}},
{"type":"Feature","properties":{"fid":17,"sq_yards":"267","plot_no":"015","facing":"W","status":"AVL","per_sq_ft_price":null,"per_sq_yard_price":null},"geometry":{"type":"Polygon","coordinates":[[[78.453850066092912,17.207100214681578],[78.454022360048825,17.207072218611472],[78.454002821558973,17.206965324486628],[78.453827863263555,17.20699841076997],[78.453850066092912,17.207100214681578]]]}},
{"type":"Feature","properties":{"fid":18,"sq_yards":"267","plot_no":"015","facing":"W","status":"AVL","per_sq_ft_price":null,"per_sq_yard_price":null},"geometry":{"type":"Polygon","coordinates":[[[78.453902845273618,17.206412082893291],[78.454075139229531,17.206384086823185],[78.454055600739679,17.206277192698341],[78.453880642444261,17.206310278981682],[78.453902845273618,17.206412082893291]]]}},
{"type":"Feature","properties":{"fid":19,"sq_yards":"267","plot_no":"015","facing":"W","status":"AVL","per_sq_ft_price":null,"per_sq_yard_price":null},"geometry":{"type":"Polygon","coordinates":[[[78.453923097184855,17.206521947170479],[78.454095391140768,17.206493951100374],[78.454075852650917,17.20638705697553],[78.453900894355499,17.206420143258871],[78.453923097184855,17.206521947170479]]]}},
{"type":"Feature","properties":{"fid":20,"sq_yards":"267","plot_no":"015","facing":"W","status":"AVL","per_sq_ft_price":null,"per_sq_yard_price":null},"geometry":{"type":"Polygon","coordinates":[[[78.453943349096093,17.206631811447668],[78.454115643052006,17.206603815377562],[78.454096104562154,17.206496921252718],[78.453921146266737,17.20653000753606],[78.453943349096093,17.206631811447668]]]}},
{"type":"Feature","properties":{"fid":21,"sq_yards":"267","plot_no":"015","facing":"W","status":"AVL","per_sq_ft_price":null,"per_sq_yard_price":null},"geometry":{"type":"Polygon","coordinates":[[[78.453963601007331,17.206741675724857],[78.454135894963244,17.206713679654751],[78.454116356473392,17.206606785529907],[78.453941398177975,17.206639871813248],[78.453963601007331,17.206741675724857]]]}},
{"type":"Feature","properties":{"fid":22,"sq_yards":"267","plot_no":"015","facing":"W","status":"AVL","per_sq_ft_price":null,"per_sq_yard_price":null},"geometry":{"type":"Polygon","coordinates":[[[78.453983852918569,17.206851540002045],[78.454156146874482,17.206823543931939],[78.45413660838463,17.206716649807095],[78.453961650089212,17.206749736090437],[78.453983852918569,17.206851540002045]]]}},
{"type":"Feature","properties":{"fid":23,"sq_yards":"267","plot_no":"015","facing":"W","status":"AVL","per_sq_ft_price":null,"per_sq_yard_price":null},"geometry":{"type":"Polygon","coordinates":[[[78.454004104829806,17.206961404279234],[78.454176398785719,17.206933408209128],[78.454156860295868,17.206826514084284],[78.45398190200045,17.206859600367626],[78.454004104829806,17.206961404279234]]]}},
{"type":"Feature","properties":{"fid":24,"sq_yards":"267","plot_no":"015","facing":"W","status":"AVL","per_sq_ft_price":null,"per_sq_yard_price":null},"geometry":{"type":"Polygon","coordinates":[[[78.454024356741044,17.207071268556422],[78.454196650696957,17.207043272486317],[78.454177112207105,17.206936378361473],[78.454002153911688,17.206969464644814],[78.454024356741044,17.207071268556422]]]}},
{"type":"Feature","properties":{"fid":25,"sq_yards":"400","plot_no":"08","facing":"N/W","status":"AVL","per_sq_ft_price":null,"per_sq_yard_price":null},"geometry":{"type":"Polygon","coordinates":[[[78.45389374091414,17.207246030867086],[78.453850066092897,17.207100214681578],[78.454037765393139,17.207069089782731],[78.454061737825072,17.207225717256293],[78.45389374091414,17.207246030867086]]]}},
{"type":"Feature","properties":{"fid":26,"sq_yards":"400","plot_no":"025","facing":"N/E","status":"AVL","per_sq_ft_price":null,"per_sq_yard_price":null},"geometry":{"type":"Polygon","coordinates":[[[78.454061737825072,17.207225717256293],[78.454236114365528,17.207193215474401],[78.454214848933759,17.207036800569174],[78.454037765393139,17.207069089782731],[78.454061737825072,17.207225717256293]]]}},
{"type":"Feature","properties":{"fid":27,"sq_yards":"382","plot_no":"035","facing":"S/W","status":"AVL","per_sq_ft_price":null,"per_sq_yard_price":null},"geometry":{"type":"Polygon","coordinates":[[[78.454159276913771,17.20621390605006],[78.454313338227905,17.206185014467138],[78.4542821479005,17.206003539108721],[78.454123360779192,17.206040556484844],[78.454159276913771,17.20621390605006]]]}},
{"type":"Feature","properties":{"fid":28,"sq_yards":"382","plot_no":"035","facing":"S/W","status":"AVL","per_sq_ft_price":null,"per_sq_yard_price":null},"geometry":{"type":"Polygon","coordinates":[[[78.454317118873675,17.206178694416963],[78.454471180187809,17.206149802834041],[78.454439989860404,17.205968327475624],[78.454281202739097,17.206005344851746],[78.454317118873675,17.206178694416963]]]}},
{"type":"Feature","properties":{"fid":29,"sq_yards":"220","plot_no":"034","facing":"W","status":"AVL","per_sq_ft_price":null,"per_sq_yard_price":null},"geometry":{"type":"Polygon","coordinates":[[[78.454170016540246,17.206309146279246],[78.454332770912401,17.206282534223472],[78.454313338227905,17.206185014467138],[78.454159276913771,17.20621390605006],[78.454170016540246,17.206309146279246]]]}},
{"type":"Feature","properties":{"fid":30,"sq_yards":"220","plot_no":"034","facing":"W","status":"AVL","per_sq_ft_price":null,"per_sq_yard_price":null},"geometry":{"type":"Polygon","coordinates":[[[78.454188901026342,17.206410527287531],[78.454351655398497,17.206383915231758],[78.454332222714001,17.206286395475423],[78.454178161399867,17.206315287058345],[78.454188901026342,17.206410527287531]]]}},
{"type":"Feature","properties":{"fid":31,"sq_yards":"220","plot_no":"034","facing":"W","status":"AVL","per_sq_ft_price":null,"per_sq_yard_price":null},"geometry":{"type":"Polygon","coordinates":[[[78.454207785512438,17.206511908295816],[78.454370539884593,17.206485296240043],[78.454351107200097,17.206387776483709],[78.454197045885962,17.20641666806663],[78.454207785512438,17.206511908295816]]]}},
{"type":"Feature","properties":{"fid":32,"sq_yards":"220","plot_no":"034","facing":"W","status":"AVL","per_sq_ft_price":null,"per_sq_yard_price":null},"geometry":{"type":"Polygon","coordinates":[[[78.454226669998533,17.206613289304101],[78.454389424370689,17.206586677248328],[78.454369991686193,17.206489157491994],[78.454215930372058,17.206518049074916],[78.454226669998533,17.206613289304101]]]}},
{"type":"Feature","properties":{"fid":33,"sq_yards":"220","plot_no":"034","facing":"W","status":"AVL","per_sq_ft_price":null,"per_sq_yard_price":null},"geometry":{"type":"Polygon","coordinates":[[[78.454242441229738,17.206706471448765],[78.454405195601893,17.206679859392992],[78.454385762917397,17.206582339636658],[78.454231701603263,17.206611231219579],[78.454242441229738,17.206706471448765]]]}},
{"type":"Feature","properties":{"fid":34,"sq_yards":"220","plot_no":"034","facing":"W","status":"AVL","per_sq_ft_price":null,"per_sq_yard_price":null},"geometry":{"type":"Polygon","coordinates":[[[78.454258212460942,17.206799653593428],[78.454420966833098,17.206773041537655],[78.454401534148602,17.206675521781321],[78.454247472834467,17.206704413364243],[78.454258212460942,17.206799653593428]]]}},
{"type":"Feature","properties":{"fid":35,"sq_yards":"220","plot_no":"028","facing":"W","status":"AVL","per_sq_ft_price":null,"per_sq_yard_price":null},"geometry":{"type":"Polygon","coordinates":[[[78.454287610239774,17.206906936081094],[78.454445965845096,17.206876822536049],[78.454420966833098,17.206773041537652],[78.454269046232483,17.206797882157677],[78.454287610239774,17.206906936081094]]]}},
{"type":"Feature","properties":{"fid":36,"sq_yards":"220","plot_no":"027","facing":"W","status":"AVL","per_sq_ft_price":null,"per_sq_yard_price":null},"geometry":{"type":"Polygon","coordinates":[[[78.454305938434828,17.207002739140613],[78.454463560912387,17.206974726555238],[78.454445965845096,17.206876822536046],[78.454287610239774,17.206906936081094],[78.454305938434828,17.207002739140613]]]}},
{"type":"Feature","properties":{"fid":37,"sq_yards":"397","plot_no":"026","facing":"N/W","status":"AVL","per_sq_ft_price":null,"per_sq_yard_price":null},"geometry":{"type":"Polygon","coordinates":[[[78.45434409989096,17.207172785640417],[78.45449823402771,17.207152099689502],[78.454463560912387,17.206974726555238],[78.454305938434828,17.207002739140613],[78.45434409989096,17.207172785640417]]]}},
{"type":"Feature","properties":{"fid":38,"sq_yards":"397","plot_no":"026","facing":"N/W","status":"AVL","per_sq_ft_price":null,"per_sq_yard_price":null},"geometry":{"type":"Polygon","coordinates":[[[78.45450078169938,17.207147232396512],[78.45465491583613,17.207126546445597],[78.454620242720807,17.206949173311333],[78.454462620243248,17.206977185896708],[78.45450078169938,17.207147232396512]]]}},
{"type":"Feature","properties":{"fid":39,"sq_yards":"220","plot_no":"037","facing":"E","status":"AVL","per_sq_ft_price":null,"per_sq_yard_price":null},"geometry":{"type":"Polygon","coordinates":[[[78.454332770912401,17.206282534223472],[78.454494157753089,17.206258464401841],[78.454471180187809,17.206149802834041],[78.454313338227905,17.206185014467138],[78.454332770912401,17.206282534223472]]]}},
{"type":"Feature","properties":{"fid":40,"sq_yards":"220","plot_no":"037","facing":"E","status":"AVL","per_sq_ft_price":null,"per_sq_yard_price":null},"geometry":{"type":"Polygon","coordinates":[[[78.454349947564239,17.206384192036005],[78.454511334404927,17.206360122214374],[78.454488356839647,17.206251460646573],[78.454330514879743,17.206286672279671],[78.454349947564239,17.206384192036005]]]}},
{"type":"Feature","properties":{"fid":41,"sq_yards":"220","plot_no":"037","facing":"E","status":"AVL","per_sq_ft_price":null,"per_sq_yard_price":null},"geometry":{"type":"Polygon","coordinates":[[[78.454367124216077,17.206485849848537],[78.454528511056765,17.206461780026906],[78.454505533491485,17.206353118459106],[78.454347691531581,17.206388330092203],[78.454367124216077,17.206485849848537]]]}},
{"type":"Feature","properties":{"fid":42,"sq_yards":"220","plot_no":"037","facing":"E","status":"AVL","per_sq_ft_price":null,"per_sq_yard_price":null},"geometry":{"type":"Polygon","coordinates":[[[78.454384300867915,17.206587507661069],[78.454545687708602,17.206563437839439],[78.454522710143323,17.206454776271638],[78.454364868183418,17.206489987904735],[78.454384300867915,17.206587507661069]]]}},
{"type":"Feature","properties":{"fid":43,"sq_yards":"220","plot_no":"041","facing":"E","status":"AVL","per_sq_ft_price":null,"per_sq_yard_price":null},"geometry":{"type":"Polygon","coordinates":[[[78.454401534148602,17.206675521781317],[78.454562817504922,17.206651012242514],[78.454545687708588,17.206563437839442],[78.454389424370689,17.206586677248328],[78.454401534148602,17.206675521781317]]]}},
{"type":"Feature","properties":{"fid":44,"sq_yards":"220","plot_no":"041","facing":"E","status":"AVL","per_sq_ft_price":null,"per_sq_yard_price":null},"geometry":{"type":"Polygon","coordinates":[[[78.454419367850363,17.206770434052391],[78.454580651206683,17.206745924513587],[78.45456352141035,17.206658350110516],[78.45440725807245,17.206681589519402],[78.454419367850363,17.206770434052391]]]}},
{"type":"Feature","properties":{"fid":45,"sq_yards":"220","plot_no":"041","facing":"E","status":"AVL","per_sq_ft_price":null,"per_sq_yard_price":null},"geometry":{"type":"Polygon","coordinates":[[[78.454460130597283,17.206971209849993],[78.454621413953603,17.206946700311189],[78.45460428415727,17.206859125908117],[78.45444802081937,17.206882365317004],[78.454460130597283,17.206971209849993]]]}},
{"type":"Feature","properties":{"fid":46,"sq_yards":"220","plot_no":"043","facing":"E","status":"AVL","per_sq_ft_price":null,"per_sq_yard_price":null},"geometry":{"type":"Polygon","coordinates":[[[78.454445965845096,17.206876822536046],[78.454600395662226,17.20685032790729],[78.454580651206683,17.206745924513584],[78.454420966833098,17.206773041537652],[78.454445965845096,17.206876822536046]]]}},
{"type":"Feature","properties":{"fid":47,"sq_yards":"309","plot_no":"055","facing":"S/W","status":"AVL","per_sq_ft_price":null,"per_sq_yard_price":null},"geometry":{"type":"Polygon","coordinates":[[[78.454557892545665,17.206057802079695],[78.454729860384205,17.206024339310943],[78.454709479010745,17.205882578787097],[78.454536874254302,17.205926384625808],[78.454557892545665,17.206057802079695]]]}},
{"type":"Feature","properties":{"fid":48,"sq_yards":"309","plot_no":"055","facing":"S/W","status":"AVL","per_sq_ft_price":null,"per_sq_yard_price":null},"geometry":{"type":"Polygon","coordinates":[[[78.45474165075872,17.206029935045809],[78.45491361859726,17.205996472277057],[78.4548932372238,17.205854711753211],[78.454720632467357,17.205898517591923],[78.45474165075872,17.206029935045809]]]}},
{"type":"Feature","properties":{"fid":49,"sq_yards":"267","plot_no":"054","facing":"W","status":"AVL","per_sq_ft_price":null,"per_sq_yard_price":null},"geometry":{"type":"Polygon","coordinates":[[[78.454577637001208,17.206170358621094],[78.454750241757637,17.206138721113668],[78.454729860384205,17.206024339310943],[78.454557892545665,17.206057802079691],[78.454577637001208,17.206170358621094]]]}},
{"type":"Feature","properties":{"fid":50,"sq_yards":"267","plot_no":"054","facing":"W","status":"AVL","per_sq_ft_price":null,"per_sq_yard_price":null},"geometry":{"type":"Polygon","coordinates":[[[78.454596693039321,17.206280418056842],[78.45476929779575,17.206248780549416],[78.454748916422318,17.206134398746691],[78.454576948583778,17.206167861515439],[78.454596693039321,17.206280418056842]]]}},
{"type":"Feature","properties":{"fid":51,"sq_yards":"267","plot_no":"054","facing":"W","status":"AVL","per_sq_ft_price":null,"per_sq_yard_price":null},"geometry":{"type":"Polygon","coordinates":[[[78.454615749077433,17.20639047749259],[78.454788353833862,17.206358839985164],[78.454767972460431,17.206244458182439],[78.454596004621891,17.206277920951187],[78.454615749077433,17.20639047749259]]]}},
{"type":"Feature","properties":{"fid":52,"sq_yards":"267","plot_no":"054","facing":"W","status":"AVL","per_sq_ft_price":null,"per_sq_yard_price":null},"geometry":{"type":"Polygon","coordinates":[[[78.454634805115546,17.206500536928338],[78.454807409871975,17.206468899420912],[78.454787028498544,17.206354517618188],[78.454615060660004,17.206387980386936],[78.454634805115546,17.206500536928338]]]}},
{"type":"Feature","properties":{"fid":53,"sq_yards":"267","plot_no":"054","facing":"W","status":"AVL","per_sq_ft_price":null,"per_sq_yard_price":null},"geometry":{"type":"Polygon","coordinates":[[[78.454653861153659,17.206610596364087],[78.454826465910088,17.20657895885666],[78.454806084536656,17.206464577053936],[78.454634116698116,17.206498039822684],[78.454653861153659,17.206610596364087]]]}},
{"type":"Feature","properties":{"fid":54,"sq_yards":"267","plot_no":"054","facing":"W","status":"AVL","per_sq_ft_price":null,"per_sq_yard_price":null},"geometry":{"type":"Polygon","coordinates":[[[78.454672917191772,17.206720655799835],[78.454845521948201,17.206689018292408],[78.454825140574769,17.206574636489684],[78.454653172736229,17.206608099258432],[78.454672917191772,17.206720655799835]]]}},
{"type":"Feature","properties":{"fid":55,"sq_yards":"267","plot_no":"054","facing":"W","status":"AVL","per_sq_ft_price":null,"per_sq_yard_price":null},"geometry":{"type":"Polygon","coordinates":[[[78.454691973229885,17.206830715235583],[78.454864577986314,17.206799077728157],[78.454844196612882,17.206684695925432],[78.454672228774342,17.20671815869418],[78.454691973229885,17.206830715235583]]]}},
{"type":"Feature","properties":{"fid":56,"sq_yards":"267","plot_no":"054","facing":"W","status":"AVL","per_sq_ft_price":null,"per_sq_yard_price":null},"geometry":{"type":"Polygon","coordinates":[[[78.454711029267997,17.206940774671331],[78.454883634024426,17.206909137163905],[78.454863252650995,17.20679475536118],[78.454691284812455,17.206828218129928],[78.454711029267997,17.206940774671331]]]}},
{"type":"Feature","properties":{"fid":57,"sq_yards":"267","plot_no":"054","facing":"W","status":"AVL","per_sq_ft_price":null,"per_sq_yard_price":null},"geometry":{"type":"Polygon","coordinates":[[[78.454756936788812,17.206145533677869],[78.454929541545241,17.206113896170443],[78.454909160171809,17.205999514367718],[78.454737192333269,17.206032977136466],[78.454756936788812,17.206145533677869]]]}},
{"type":"Feature","properties":{"fid":58,"sq_yards":"267","plot_no":"054","facing":"W","status":"AVL","per_sq_ft_price":null,"per_sq_yard_price":null},"geometry":{"type":"Polygon","coordinates":[[[78.454776532562263,17.20625550661526],[78.454949137318692,17.206223869107834],[78.454928755945261,17.20610948730511],[78.454756788106721,17.206142950073858],[78.454776532562263,17.20625550661526]]]}},
{"type":"Feature","properties":{"fid":59,"sq_yards":"267","plot_no":"054","facing":"W","status":"AVL","per_sq_ft_price":null,"per_sq_yard_price":null},"geometry":{"type":"Polygon","coordinates":[[[78.454796128335715,17.206365479552652],[78.454968733092144,17.206333842045225],[78.454948351718713,17.206219460242501],[78.454776383880173,17.206252923011249],[78.454796128335715,17.206365479552652]]]}},
{"type":"Feature","properties":{"fid":60,"sq_yards":"267","plot_no":"054","facing":"W","status":"AVL","per_sq_ft_price":null,"per_sq_yard_price":null},"geometry":{"type":"Polygon","coordinates":[[[78.454815724109167,17.206475452490043],[78.454988328865596,17.206443814982617],[78.454967947492165,17.206329433179892],[78.454795979653625,17.20636289594864],[78.454815724109167,17.206475452490043]]]}},
{"type":"Feature","properties":{"fid":61,"sq_yards":"267","plot_no":"054","facing":"W","status":"AVL","per_sq_ft_price":null,"per_sq_yard_price":null},"geometry":{"type":"Polygon","coordinates":[[[78.454835319882619,17.206585425427434],[78.455007924639048,17.206553787920008],[78.454987543265617,17.206439406117283],[78.454815575427077,17.206472868886031],[78.454835319882619,17.206585425427434]]]}},
{"type":"Feature","properties":{"fid":62,"sq_yards":"267","plot_no":"054","facing":"W","status":"AVL","per_sq_ft_price":null,"per_sq_yard_price":null},"geometry":{"type":"Polygon","coordinates":[[[78.454854915656071,17.206695398364825],[78.4550275204125,17.206663760857399],[78.455007139039068,17.206549379054675],[78.454835171200529,17.206582841823423],[78.454854915656071,17.206695398364825]]]}},
{"type":"Feature","properties":{"fid":63,"sq_yards":"267","plot_no":"054","facing":"W","status":"AVL","per_sq_ft_price":null,"per_sq_yard_price":null},"geometry":{"type":"Polygon","coordinates":[[[78.454874511429523,17.206805371302217],[78.455047116185952,17.20677373379479],[78.45502673481252,17.206659351992066],[78.45485476697398,17.206692814760814],[78.454874511429523,17.206805371302217]]]}},
{"type":"Feature","properties":{"fid":64,"sq_yards":"267","plot_no":"054","facing":"W","status":"AVL","per_sq_ft_price":null,"per_sq_yard_price":null},"geometry":{"type":"Polygon","coordinates":[[[78.454894107202975,17.206915344239608],[78.455066711959404,17.206883706732182],[78.455046330585972,17.206769324929457],[78.454874362747432,17.206802787698205],[78.454894107202975,17.206915344239608]]]}},
{"type":"Feature","properties":{"fid":65,"sq_yards":"400","plot_no":"046","facing":"N/W","status":"AVL","per_sq_ft_price":null,"per_sq_yard_price":null},"geometry":{"type":"Polygon","coordinates":[[[78.45475227989499,17.207094901545023],[78.454921700061817,17.207070565122944],[78.454883634024426,17.206909137163898],[78.454711029267997,17.206940774671324],[78.45475227989499,17.207094901545023]]]}},
{"type":"Feature","properties":{"fid":66,"sq_yards":"400","plot_no":"046","facing":"N/W","status":"AVL","per_sq_ft_price":null,"per_sq_yard_price":null},"geometry":{"type":"Polygon","coordinates":[[[78.454931579682608,17.207074944064164],[78.455100999849435,17.207050607642085],[78.455062933812044,17.206889179683039],[78.454890329055615,17.206920817190465],[78.454931579682608,17.207074944064164]]]}},
{"type":"Feature","properties":{"fid":67,"sq_yards":"299","plot_no":"076","facing":"S/W","status":"AVL","per_sq_ft_price":null,"per_sq_yard_price":null},"geometry":{"type":"Polygon","coordinates":[[[78.454982029648733,17.205953339538684],[78.4551310684421,17.205922918820924],[78.455111960904503,17.205768381497446],[78.454962922111136,17.205813404195567],[78.454982029648733,17.205953339538684]]]}},
{"type":"Feature","properties":{"fid":68,"sq_yards":"328","plot_no":"077","facing":"S/E","status":"AVL","per_sq_ft_price":null,"per_sq_yard_price":null},"geometry":{"type":"Polygon","coordinates":[[[78.4551310684421,17.205922918820924],[78.45528138107133,17.205893714927171],[78.455252082846982,17.205717274637657],[78.455111960904503,17.205768381497446],[78.4551310684421,17.205922918820924]]]}},
{"type":"Feature","properties":{"fid":69,"sq_yards":"200","plot_no":"075","facing":"W","status":"AVL","per_sq_ft_price":null,"per_sq_yard_price":null},"geometry":{"type":"Polygon","coordinates":[[[78.455000118117695,17.206053606189023],[78.455144061567708,17.206032311698653],[78.4551310684421,17.205922918820924],[78.454988260249138,17.20595206779381],[78.455000118117695,17.206053606189023]]]}},
{"type":"Feature","properties":{"fid":70,"sq_yards":"200","plot_no":"075","facing":"W","status":"AVL","per_sq_ft_price":null,"per_sq_yard_price":null},"geometry":{"type":"Polygon","coordinates":[[[78.455016687400061,17.206155356073705],[78.455160630850074,17.206134061583334],[78.455147637724465,17.206024668705606],[78.455004829531504,17.206053817678491],[78.455016687400061,17.206155356073705]]]}},
{"type":"Feature","properties":{"fid":71,"sq_yards":"200","plot_no":"075","facing":"W","status":"AVL","per_sq_ft_price":null,"per_sq_yard_price":null},"geometry":{"type":"Polygon","coordinates":[[[78.455044716037392,17.206254943324261],[78.455188659487405,17.206233648833891],[78.455175666361797,17.206124255956162],[78.455032858168835,17.206153404929047],[78.455044716037392,17.206254943324261]]]}},
{"type":"Feature","properties":{"fid":72,"sq_yards":"200","plot_no":"072","facing":"W","status":"AVL","per_sq_ft_price":null,"per_sq_yard_price":null},"geometry":{"type":"Polygon","coordinates":[[[78.455058454631597,17.206348105971543],[78.455203671917459,17.206321335797597],[78.455188659487405,17.206233648833894],[78.455044716037392,17.206254943324261],[78.455058454631597,17.206348105971543]]]}},
{"type":"Feature","properties":{"fid":73,"sq_yards":"200","plot_no":"072","facing":"W","status":"AVL","per_sq_ft_price":null,"per_sq_yard_price":null},"geometry":{"type":"Polygon","coordinates":[[[78.455073740661675,17.206445452058453],[78.455218957947537,17.206418681884507],[78.455203945517482,17.206330994920805],[78.455060002067469,17.206352289411171],[78.455073740661675,17.206445452058453]]]}},
{"type":"Feature","properties":{"fid":74,"sq_yards":"200","plot_no":"70","facing":"W","status":"AVL","per_sq_ft_price":null,"per_sq_yard_price":null},"geometry":{"type":"Polygon","coordinates":[[[78.455112611491828,17.206548715392454],[78.455252733434307,17.206526812546546],[78.455234644965358,17.206421678868555],[78.455089427679496,17.206448449042501],[78.455112611491828,17.206548715392454]]]}},
{"type":"Feature","properties":{"fid":75,"sq_yards":"200","plot_no":"70","facing":"W","status":"AVL","per_sq_ft_price":null,"per_sq_yard_price":null},"geometry":{"type":"Polygon","coordinates":[[[78.455127897521905,17.206650928676424],[78.455268019464384,17.206629025830516],[78.455249930995436,17.206523892152525],[78.455104713709574,17.206550662326471],[78.455127897521905,17.206650928676424]]]}},
{"type":"Feature","properties":{"fid":76,"sq_yards":"200","plot_no":"70","facing":"W","status":"AVL","per_sq_ft_price":null,"per_sq_yard_price":null},"geometry":{"type":"Polygon","coordinates":[[[78.455148278895351,17.206750708256315],[78.45528840083783,17.206728805410407],[78.455270312368881,17.206623671732416],[78.455125095083019,17.206650441906362],[78.455148278895351,17.206750708256315]]]}},
{"type":"Feature","properties":{"fid":77,"sq_yards":"200","plot_no":"70","facing":"W","status":"AVL","per_sq_ft_price":null,"per_sq_yard_price":null},"geometry":{"type":"Polygon","coordinates":[[[78.455163564925442,17.206845620489684],[78.455303686867921,17.206823717643775],[78.455285598398973,17.206718583965785],[78.455140381113111,17.206745354139731],[78.455163564925442,17.206845620489684]]]}},
{"type":"Feature","properties":{"fid":78,"sq_yards":"361","plot_no":"066","facing":"N/W","status":"AVL","per_sq_ft_price":null,"per_sq_yard_price":null},"geometry":{"type":"Polygon","coordinates":[[[78.455204568264961,17.207016719113678],[78.455347237879167,17.206996033145941],[78.455313099078595,17.206814726697331],[78.455173996204806,17.206842713548308],[78.455204568264961,17.207016719113678]]]}},
{"type":"Feature","properties":{"fid":79,"sq_yards":"361","plot_no":"066","facing":"N/W","status":"AVL","per_sq_ft_price":null,"per_sq_yard_price":null},"geometry":{"type":"Polygon","coordinates":[[[78.455346648147284,17.206991165844599],[78.45548931776149,17.206970479876862],[78.455455178960918,17.206789173428252],[78.455316076087129,17.206817160279229],[78.455346648147284,17.206991165844599]]]}},
{"type":"Feature","properties":{"fid":80,"sq_yards":"200","plot_no":"075","facing":"W","status":"AVL","per_sq_ft_price":null,"per_sq_yard_price":null},"geometry":{"type":"Polygon","coordinates":[[[78.455147883075227,17.206026835961069],[78.45529182652524,17.206005541470699],[78.455278833399632,17.20589614859297],[78.45513602520667,17.205925297565855],[78.455147883075227,17.206026835961069]]]}},
{"type":"Feature","properties":{"fid":81,"sq_yards":"200","plot_no":"079","facing":"E","status":"AVL","per_sq_ft_price":null,"per_sq_yard_price":null},"geometry":{"type":"Polygon","coordinates":[[[78.455164207006831,17.206126418590291],[78.455310169761404,17.206098872183272],[78.455298705238818,17.20600821850088],[78.455147883075227,17.206026835961065],[78.455164207006831,17.206126418590291]]]}},
{"type":"Feature","properties":{"fid":82,"sq_yards":"200","plot_no":"079","facing":"E","status":"AVL","per_sq_ft_price":null,"per_sq_yard_price":null},"geometry":{"type":"Polygon","coordinates":[[[78.455185857048519,17.206224035824132],[78.455331819803092,17.206196489417113],[78.455320355280506,17.206105835734721],[78.455169533116916,17.206124453194906],[78.455185857048519,17.206224035824132]]]}},
{"type":"Feature","properties":{"fid":83,"sq_yards":"200","plot_no":"079","facing":"E","status":"AVL","per_sq_ft_price":null,"per_sq_yard_price":null},"geometry":{"type":"Polygon","coordinates":[[[78.455206238421965,17.206321381984928],[78.455352201176538,17.20629383557791],[78.455340736653952,17.206203181895518],[78.455189914490362,17.206221799355703],[78.455206238421965,17.206321381984928]]]}},
{"type":"Feature","properties":{"fid":84,"sq_yards":"200","plot_no":"079","facing":"E","status":"AVL","per_sq_ft_price":null,"per_sq_yard_price":null},"geometry":{"type":"Polygon","coordinates":[[[78.455218976780372,17.206421161746594],[78.455364939534945,17.206393615339575],[78.455353475012359,17.206302961657183],[78.455202652848769,17.206321579117368],[78.455218976780372,17.206421161746594]]]}},
{"type":"Feature","properties":{"fid":85,"sq_yards":"200","plot_no":"079","facing":"E","status":"AVL","per_sq_ft_price":null,"per_sq_yard_price":null},"geometry":{"type":"Polygon","coordinates":[[[78.455247402156601,17.206516637486082],[78.455393364911174,17.206489091079064],[78.455381900388588,17.206398437396672],[78.455231078224998,17.206417054856857],[78.455247402156601,17.206516637486082]]]}},
{"type":"Feature","properties":{"fid":86,"sq_yards":"200","plot_no":"079","facing":"E","status":"AVL","per_sq_ft_price":null,"per_sq_yard_price":null},"geometry":{"type":"Polygon","coordinates":[[[78.455267783530061,17.206618850793586],[78.455413746284634,17.206591304386567],[78.455402281762048,17.206500650704175],[78.455251459598458,17.20651926816436],[78.455267783530061,17.206618850793586]]]}},
{"type":"Feature","properties":{"fid":87,"sq_yards":"200","plot_no":"079","facing":"E","status":"AVL","per_sq_ft_price":null,"per_sq_yard_price":null},"geometry":{"type":"Polygon","coordinates":[[[78.455288164903521,17.206718630396441],[78.455434127658094,17.206691083989423],[78.455422663135508,17.206600430307031],[78.455271840971918,17.206619047767216],[78.455288164903521,17.206718630396441]]]}},
{"type":"Feature","properties":{"fid":88,"sq_yards":"200","plot_no":"079","facing":"E","status":"AVL","per_sq_ft_price":null,"per_sq_yard_price":null},"geometry":{"type":"Polygon","coordinates":[[[78.455303450933613,17.20682084359235],[78.455449413688186,17.206793297185332],[78.455437949165599,17.20670264350294],[78.455287127002009,17.206721260963125],[78.455303450933613,17.20682084359235]]]}},
{"type":"Feature","properties":{"fid":89,"sq_yards":"200","plot_no":"097","facing":"W","status":"AVL","per_sq_ft_price":null,"per_sq_yard_price":null},"geometry":{"type":"Polygon","coordinates":[[[78.455388077408642,17.205980975028737],[78.455535842366203,17.205956638458517],[78.455525651679466,17.205849557511495],[78.455362600691842,17.205771680420192],[78.455388077408642,17.205980975028737]]]}},
{"type":"Feature","properties":{"fid":90,"sq_yards":"200","plot_no":"096","facing":"W","status":"AVL","per_sq_ft_price":null,"per_sq_yard_price":null},"geometry":{"type":"Polygon","coordinates":[[[78.455401834835726,17.206083310271509],[78.455548325957437,17.206055323230949],[78.455535842366203,17.205956638458517],[78.455388077408642,17.205980975028737],[78.455401834835726,17.206083310271509]]]}},
{"type":"Feature","properties":{"fid":91,"sq_yards":"200","plot_no":"096","facing":"W","status":"AVL","per_sq_ft_price":null,"per_sq_yard_price":null},"geometry":{"type":"Polygon","coordinates":[[[78.455418381678967,17.206185063469992],[78.455564872800679,17.206157076429431],[78.455552389209444,17.206058391656999],[78.455404624251884,17.206082728227219],[78.455418381678967,17.206185063469992]]]}},
{"type":"Feature","properties":{"fid":92,"sq_yards":"200","plot_no":"096","facing":"W","status":"AVL","per_sq_ft_price":null,"per_sq_yard_price":null},"geometry":{"type":"Polygon","coordinates":[[[78.455434928522209,17.206286816668474],[78.45558141964392,17.206258829627913],[78.455568936052686,17.206160144855481],[78.455421171095125,17.206184481425701],[78.455434928522209,17.206286816668474]]]}},
{"type":"Feature","properties":{"fid":93,"sq_yards":"200","plot_no":"096","facing":"W","status":"AVL","per_sq_ft_price":null,"per_sq_yard_price":null},"geometry":{"type":"Polygon","coordinates":[[[78.455459841774953,17.206382575892199],[78.455606332896664,17.206354588851639],[78.45559384930543,17.206255904079207],[78.455446084347869,17.206280240649427],[78.455459841774953,17.206382575892199]]]}},
{"type":"Feature","properties":{"fid":94,"sq_yards":"200","plot_no":"096","facing":"W","status":"AVL","per_sq_ft_price":null,"per_sq_yard_price":null},"geometry":{"type":"Polygon","coordinates":[[[78.455477675476715,17.206482355615009],[78.455624166598426,17.206454368574448],[78.455611683007191,17.206355683802016],[78.455463918049631,17.206380020372237],[78.455477675476715,17.206482355615009]]]}},
{"type":"Feature","properties":{"fid":95,"sq_yards":"200","plot_no":"096","facing":"W","status":"AVL","per_sq_ft_price":null,"per_sq_yard_price":null},"geometry":{"type":"Polygon","coordinates":[[[78.455503152193529,17.206674613953584],[78.45564964331524,17.206646626913024],[78.455637159724006,17.206547942140592],[78.455489394766445,17.206572278710812],[78.455503152193529,17.206674613953584]]]}},
{"type":"Feature","properties":{"fid":96,"sq_yards":"200","plot_no":"096","facing":"W","status":"AVL","per_sq_ft_price":null,"per_sq_yard_price":null},"geometry":{"type":"Polygon","coordinates":[[[78.455518438223635,17.206771959871606],[78.455664929345346,17.206743972831045],[78.455652445754112,17.206645288058613],[78.455504680796551,17.206669624628834],[78.455518438223635,17.206771959871606]]]}},
{"type":"Feature","properties":{"fid":97,"sq_yards":"200","plot_no":"091","facing":"W","status":"AVL","per_sq_ft_price":null,"per_sq_yard_price":null},"geometry":{"type":"Polygon","coordinates":[[[78.455489394766445,17.206572278710809],[78.455637159724006,17.206547942140592],[78.455624166598412,17.206454368574445],[78.455477675476715,17.206482355615012],[78.455489394766445,17.206572278710809]]]}},
{"type":"Feature","properties":{"fid":98,"sq_yards":"325","plot_no":"098","facing":"E","status":"AVL","per_sq_ft_price":null,"per_sq_yard_price":null},"geometry":{"type":"Polygon","coordinates":[[[78.455548325957437,17.206055323230949],[78.455698383819467,17.20602745786897],[78.45568309778939,17.205932545250839],[78.455535842366203,17.205956638458517],[78.455548325957437,17.206055323230949]]]}},
{"type":"Feature","properties":{"fid":99,"sq_yards":"325","plot_no":"098","facing":"E","status":"AVL","per_sq_ft_price":null,"per_sq_yard_price":null},"geometry":{"type":"Polygon","coordinates":[[[78.455563611987529,17.206152669470367],[78.455713669849558,17.206124804108388],[78.455698383819481,17.206029891490257],[78.455551128396294,17.206053984697935],[78.455563611987529,17.206152669470367]]]}},
{"type":"Feature","properties":{"fid":100,"sq_yards":"325","plot_no":"098","facing":"E","status":"AVL","per_sq_ft_price":null,"per_sq_yard_price":null},"geometry":{"type":"Polygon","coordinates":[[[78.455581445689319,17.206252449312611],[78.455731503551348,17.206224583950632],[78.455716217521271,17.206129671332501],[78.455568962098084,17.206153764540179],[78.455581445689319,17.206252449312611]]]}},
{"type":"Feature","properties":{"fid":101,"sq_yards":"325","plot_no":"098","facing":"E","status":"AVL","per_sq_ft_price":null,"per_sq_yard_price":null},"geometry":{"type":"Polygon","coordinates":[[[78.455610193472268,17.206341367820787],[78.455760251334297,17.206313502458809],[78.45574496530422,17.206218589840677],[78.455597709881033,17.206242683048355],[78.455610193472268,17.206341367820787]]]}},
{"type":"Feature","properties":{"fid":102,"sq_yards":"325","plot_no":"098","facing":"E","status":"AVL","per_sq_ft_price":null,"per_sq_yard_price":null},"geometry":{"type":"Polygon","coordinates":[[[78.455615288815622,17.206443581209495],[78.455765346677651,17.206415715847516],[78.455750060647574,17.206320803229385],[78.455602805224387,17.206344896437063],[78.455615288815622,17.206443581209495]]]}},
{"type":"Feature","properties":{"fid":103,"sq_yards":"325","plot_no":"098","facing":"E","status":"AVL","per_sq_ft_price":null,"per_sq_yard_price":null},"geometry":{"type":"Polygon","coordinates":[[[78.455635670189082,17.206545794541736],[78.455785728051112,17.206517929179757],[78.455770442021034,17.206423016561626],[78.455623186597848,17.206447109769304],[78.455635670189082,17.206545794541736]]]}},
{"type":"Feature","properties":{"fid":104,"sq_yards":"325","plot_no":"098","facing":"E","status":"AVL","per_sq_ft_price":null,"per_sq_yard_price":null},"geometry":{"type":"Polygon","coordinates":[[[78.455653503890858,17.206640706871109],[78.455803561752887,17.206612841509131],[78.45578827572281,17.206517928891],[78.455641020299623,17.206542022098677],[78.455653503890858,17.206640706871109]]]}},
{"type":"Feature","properties":{"fid":105,"sq_yards":"325","plot_no":"098","facing":"E","status":"AVL","per_sq_ft_price":null,"per_sq_yard_price":null},"geometry":{"type":"Polygon","coordinates":[[[78.455671337592619,17.206742920094449],[78.455821395454649,17.20671505473247],[78.455806109424572,17.206620142114339],[78.455658854001385,17.206644235322017],[78.455671337592619,17.206742920094449]]]}},
{"type":"Feature","properties":{"fid":106,"sq_yards":"203","plot_no":"116","facing":"W","status":"AVL","per_sq_ft_price":null,"per_sq_yard_price":null},"geometry":{"type":"Polygon","coordinates":[[[78.45580547391198,17.206150412494583],[78.45592139297348,17.20613459373687],[78.455911202286742,17.206045765303042],[78.45578509253852,17.205993441685074],[78.45580547391198,17.206150412494583]]]}},
{"type":"Feature","properties":{"fid":107,"sq_yards":"120","plot_no":"115","facing":"W","status":"AVL","per_sq_ft_price":null,"per_sq_yard_price":null},"geometry":{"type":"Polygon","coordinates":[[[78.45581056925532,17.206227072608961],[78.455931583660217,17.206205169722384],[78.45592139297348,17.20613459373687],[78.45580547391198,17.206150412494583],[78.45581056925532,17.206227072608961]]]}},
{"type":"Feature","properties":{"fid":108,"sq_yards":"120","plot_no":"115","facing":"W","status":"AVL","per_sq_ft_price":null,"per_sq_yard_price":null},"geometry":{"type":"Polygon","coordinates":[[[78.455816938434523,17.206303732708722],[78.45593795283942,17.206281829822146],[78.455927762152683,17.206211253836631],[78.455811843091183,17.206227072594345],[78.455816938434523,17.206303732708722]]]}},
{"type":"Feature","properties":{"fid":109,"sq_yards":"120","plot_no":"115","facing":"W","status":"AVL","per_sq_ft_price":null,"per_sq_yard_price":null},"geometry":{"type":"Polygon","coordinates":[[[78.455832224464629,17.206375525471763],[78.455953238869526,17.206353622585187],[78.455943048182789,17.206283046599673],[78.455827129121289,17.206298865357386],[78.455832224464629,17.206375525471763]]]}},
{"type":"Feature","properties":{"fid":110,"sq_yards":"120","plot_no":"115","facing":"W","status":"AVL","per_sq_ft_price":null,"per_sq_yard_price":null},"geometry":{"type":"Polygon","coordinates":[[[78.455842415151338,17.206448535032727],[78.455963429556235,17.206426632146151],[78.455953238869498,17.206356056160637],[78.455837319807998,17.20637187491835],[78.455842415151338,17.206448535032727]]]}},
{"type":"Feature","properties":{"fid":111,"sq_yards":"120","plot_no":"115","facing":"W","status":"AVL","per_sq_ft_price":null,"per_sq_yard_price":null},"geometry":{"type":"Polygon","coordinates":[[[78.455857352042187,17.20652168578545],[78.455978366447084,17.206499782898874],[78.455968175760347,17.206429206913359],[78.455852256698847,17.206445025671073],[78.455857352042187,17.20652168578545]]]}},
{"type":"Feature","properties":{"fid":112,"sq_yards":"120","plot_no":"115","facing":"W","status":"AVL","per_sq_ft_price":null,"per_sq_yard_price":null},"geometry":{"type":"Polygon","coordinates":[[[78.455871725933662,17.206589136983798],[78.455992740338559,17.206567234097221],[78.455982549651822,17.206496658111707],[78.455866630590322,17.20651247686942],[78.455871725933662,17.206589136983798]]]}},
{"type":"Feature","properties":{"fid":113,"sq_yards":"120","plot_no":"115","facing":"W","status":"AVL","per_sq_ft_price":null,"per_sq_yard_price":null},"geometry":{"type":"Polygon","coordinates":[[[78.455887011963767,17.206664580104302],[78.456008026368664,17.206642677217726],[78.455997835681927,17.206572101232211],[78.455881916620427,17.206587919989925],[78.455887011963767,17.206664580104302]]]}},
{"type":"Feature","properties":{"fid":114,"sq_yards":"120","plot_no":"115","facing":"W","status":"AVL","per_sq_ft_price":null,"per_sq_yard_price":null},"geometry":{"type":"Polygon","coordinates":[[[78.45589720265049,17.206732722251228],[78.456018217055387,17.206710819364652],[78.45600802636865,17.206640243379137],[78.45589210730715,17.206656062136851],[78.45589720265049,17.206732722251228]]]}},
{"type":"Feature","properties":{"fid":115,"sq_yards":"188","plot_no":"117","facing":"E","status":"AVL","per_sq_ft_price":null,"per_sq_yard_price":null},"geometry":{"type":"Polygon","coordinates":[[[78.455931583660217,17.206205169722384],[78.4560469931874,17.206182536736858],[78.456036802500677,17.206103442948493],[78.455911202286742,17.206045765303042],[78.455931583660217,17.206205169722384]]]}},
{"type":"Feature","properties":{"fid":116,"sq_yards":"120","plot_no":"115","facing":"W","status":"AVL","per_sq_ft_price":null,"per_sq_yard_price":null},"geometry":{"type":"Polygon","coordinates":[[[78.455939226675255,17.206279396170569],[78.456060241080152,17.206257493283992],[78.456050050393415,17.206186917298478],[78.455934131331915,17.206202736056191],[78.455939226675255,17.206279396170569]]]}},
{"type":"Feature","properties":{"fid":117,"sq_yards":"120","plot_no":"115","facing":"W","status":"AVL","per_sq_ft_price":null,"per_sq_yard_price":null},"geometry":{"type":"Polygon","coordinates":[[[78.455949417361964,17.206352405775423],[78.456070431766861,17.206330502888846],[78.456060241080124,17.206259926903332],[78.455944322018624,17.206275745661046],[78.455949417361964,17.206352405775423]]]}},
{"type":"Feature","properties":{"fid":118,"sq_yards":"120","plot_no":"115","facing":"W","status":"AVL","per_sq_ft_price":null,"per_sq_yard_price":null},"geometry":{"type":"Polygon","coordinates":[[[78.4559621557204,17.206425415351458],[78.456083170125297,17.206403512464881],[78.456072979438559,17.206332936479367],[78.45595706037706,17.20634875523708],[78.4559621557204,17.206425415351458]]]}},
{"type":"Feature","properties":{"fid":119,"sq_yards":"120","plot_no":"115","facing":"W","status":"AVL","per_sq_ft_price":null,"per_sq_yard_price":null},"geometry":{"type":"Polygon","coordinates":[[[78.455974894078807,17.206498424898687],[78.456095908483704,17.20647652201211],[78.456085717796967,17.206405946026596],[78.455969798735467,17.206421764784309],[78.455974894078807,17.206498424898687]]]}},
{"type":"Feature","properties":{"fid":120,"sq_yards":"120","plot_no":"115","facing":"W","status":"AVL","per_sq_ft_price":null,"per_sq_yard_price":null},"geometry":{"type":"Polygon","coordinates":[[[78.455990702201206,17.206564070413989],[78.456111716606102,17.206542167527413],[78.456101525919365,17.206471591541899],[78.455985606857865,17.206487410299612],[78.455990702201206,17.206564070413989]]]}},
{"type":"Feature","properties":{"fid":121,"sq_yards":"120","plot_no":"115","facing":"W","status":"AVL","per_sq_ft_price":null,"per_sq_yard_price":null},"geometry":{"type":"Polygon","coordinates":[[[78.456002166723763,17.206637079901775],[78.45612318112866,17.206615177015198],[78.456112990441923,17.206544601029684],[78.455997071380423,17.206560419787397],[78.456002166723763,17.206637079901775]]]}},
{"type":"Feature","properties":{"fid":122,"sq_yards":"120","plot_no":"115","facing":"W","status":"AVL","per_sq_ft_price":null,"per_sq_yard_price":null},"geometry":{"type":"Polygon","coordinates":[[[78.456017452753855,17.206708872536669],[78.456138467158752,17.206686969650093],[78.456128276472015,17.206616393664579],[78.456012357410515,17.206632212422292],[78.456017452753855,17.206708872536669]]]}},
{"type":"Feature","properties":{"fid":123,"sq_yards":null,"plot_no":"088","facing":null,"status":null,"per_sq_ft_price":null,"per_sq_yard_price":null},"geometry":{"type":"Polygon","coordinates":[[[78.455561023408819,17.206947467780477],[78.4556985976796,17.206927998626888],[78.455671337592619,17.206742920094449],[78.455518438223635,17.206771959871606],[78.455561023408819,17.206947467780477]]]}},
{"type":"Feature","properties":{"fid":124,"sq_yards":null,"plot_no":"106","facing":null,"status":null,"per_sq_ft_price":null,"per_sq_yard_price":null},"geometry":{"type":"Polygon","coordinates":[[[78.4556985976796,17.206927998626888],[78.455843814965476,17.20689757807029],[78.455821395454649,17.20671505473247],[78.455671337592619,17.206742920094449],[78.4556985976796,17.206927998626888]]]}},
{"type":"Feature","properties":{"fid":125,"sq_yards":null,"plot_no":"107","facing":null,"status":null,"per_sq_ft_price":null,"per_sq_yard_price":null},"geometry":{"type":"Polygon","coordinates":[[[78.4559331248212,17.206893342775146],[78.456047770046879,17.206876307259375],[78.456018217055387,17.206710819364652],[78.45589720265049,17.206732722251228],[78.4559331248212,17.206893342775146]]]}},
{"type":"Feature","properties":{"fid":126,"sq_yards":null,"plot_no":"125","facing":null,"status":null,"per_sq_ft_price":null,"per_sq_yard_price":null},"geometry":{"type":"Polygon","coordinates":[[[78.456047770046879,17.206876307259378],[78.456158593765039,17.206851970805534],[78.456138467158738,17.206686969650097],[78.456018217055387,17.206710819364652],[78.456047770046879,17.206876307259378]]]}},
{"type":"Feature","properties":{"fid":127,"sq_yards":null,"plot_no":"126","facing":null,"status":null,"per_sq_ft_price":null,"per_sq_yard_price":null},"geometry":{"type":"Polygon","coordinates":[[[78.456258399702037,17.206814872785358],[78.4564010693162,17.206789319501933],[78.45638196177859,17.206650601616008],[78.456238018328577,17.206681022213925],[78.456258399702037,17.206814872785358]]]}},
{"type":"Feature","properties":{"fid":128,"sq_yards":null,"plot_no":"126","facing":null,"status":null,"per_sq_ft_price":null,"per_sq_yard_price":null},"geometry":{"type":"Polygon","coordinates":[[[78.456401069316215,17.206785669023169],[78.456567727551089,17.206759112164416],[78.4565446144275,17.206618611545117],[78.456380687942755,17.206651818451736],[78.456401069316215,17.206785669023169]]]}},
{"type":"Feature","properties":{"fid":129,"sq_yards":null,"plot_no":"127","facing":null,"status":null,"per_sq_ft_price":null,"per_sq_yard_price":null},"geometry":{"type":"Polygon","coordinates":[[[78.456238018328577,17.206681022213925],[78.45638196177859,17.206650601616008],[78.456362854240979,17.206531352823916],[78.456218910790966,17.206558122967603],[78.456238018328577,17.206681022213925]]]}},
{"type":"Feature","properties":{"fid":130,"sq_yards":null,"plot_no":"130","facing":null,"status":null,"per_sq_ft_price":null,"per_sq_yard_price":null},"geometry":{"type":"Polygon","coordinates":[[[78.45638196177859,17.206650601616008],[78.4565446144275,17.206618611545117],[78.456537610450653,17.20656676009914],[78.456525353491202,17.206499854986077],[78.456362854240979,17.206531352823916],[78.45638196177859,17.206650601616008]]]}},
{"type":"Feature","properties":{"fid":131,"sq_yards":null,"plot_no":"128","facing":null,"status":null,"per_sq_ft_price":null,"per_sq_yard_price":null},"geometry":{"type":"Polygon","coordinates":[[[78.456218910790966,17.206558122967603],[78.456362854240979,17.206531352823916],[78.456331246841316,17.206412488670249],[78.45618169618362,17.206427885533497],[78.456218910790966,17.206558122967603]]]}},
{"type":"Feature","properties":{"fid":132,"sq_yards":null,"plot_no":"129","facing":null,"status":null,"per_sq_ft_price":null,"per_sq_yard_price":null},"geometry":{"type":"Polygon","coordinates":[[[78.456362854240979,17.206531352823916],[78.456525353491202,17.206499854986077],[78.456491192141812,17.206387006416065],[78.456331246841316,17.206412488670249],[78.456362854240979,17.206531352823916]]]}},
{"type":"Feature","properties":{"fid":133,"sq_yards":null,"plot_no":"S2","facing":null,"status":null,"per_sq_ft_price":null,"per_sq_yard_price":null},"geometry":{"type":"Polygon","coordinates":[[[78.45618169618362,17.206427885533497],[78.456331246841316,17.206412488670249],[78.456491192141812,17.206387006416065],[78.456431150002842,17.206295794241822],[78.456126477010685,17.206158638533143],[78.45618169618362,17.206427885533497]]]}},
{"type":"Feature","properties":{"fid":134,"sq_yards":null,"plot_no":"OC","facing":null,"status":null,"per_sq_ft_price":null,"per_sq_yard_price":null},"geometry":{"type":"Polygon","coordinates":[[[78.456560023176536,17.206357347014613],[78.456645821892721,17.20675710501347],[78.457179764003342,17.206658081762065],[78.456560023176536,17.206357347014613]]]}},
{"type":"Feature","properties":{"fid":135,"sq_yards":null,"plot_no":"OB","facing":null,"status":null,"per_sq_ft_price":null,"per_sq_yard_price":null},"geometry":{"type":"Polygon","coordinates":[[[78.457194973574857,17.207023184795357],[78.457694317224423,17.20688690073743],[78.457319809487231,17.206692209051958],[78.45714656781287,17.206733581052262],[78.457194973574857,17.207023184795357]]]}},
{"type":"Feature","properties":{"fid":136,"sq_yards":null,"plot_no":"OA","facing":null,"status":null,"per_sq_ft_price":null,"per_sq_yard_price":null},"geometry":{"type":"Polygon","coordinates":[[[78.454007891060115,17.207846205693933],[78.454111023224399,17.207826502543323],[78.455082884462783,17.208303942889891],[78.455103896393268,17.208745511882992],[78.454733402402894,17.208813364297317],[78.454662645852878,17.208584941461989],[78.454007891060115,17.207846205693933]]]}},
{"type":"Feature","properties":{"fid":137,"sq_yards":null,"plot_no":"S1","facing":null,"status":null,"per_sq_ft_price":null,"per_sq_yard_price":null},"geometry":{"type":"Polygon","coordinates":[[[78.453576776472858,17.20963005894566],[78.453692695534343,17.209621541314053],[78.453803519252531,17.210008484754002],[78.454007332987047,17.209985365514601],[78.454026440524657,17.210081492859448],[78.45343410685868,17.210070541645464],[78.453576776472858,17.20963005894566]]]}},
{"type":"Feature","properties":{"fid":138,"sq_yards":null,"plot_no":"207","facing":null,"status":null,"per_sq_ft_price":null,"per_sq_yard_price":null},"geometry":{"type":"Polygon","coordinates":[[[78.453803519252531,17.210008484754002],[78.454007332987047,17.209985365514601],[78.453973703720862,17.209871229437748],[78.453770088302633,17.209891759945318],[78.453803519252531,17.210008484754002]]]}},
{"type":"Feature","properties":{"fid":139,"sq_yards":null,"plot_no":"206","facing":null,"status":null,"per_sq_ft_price":null,"per_sq_yard_price":null},"geometry":{"type":"Polygon","coordinates":[[[78.453742256197202,17.20979458355426],[78.453946953168213,17.209772668376548],[78.453973703720862,17.209871229437748],[78.453770088302633,17.209891759945318],[78.453742256197202,17.20979458355426]]]}},
{"type":"Feature","properties":{"fid":140,"sq_yards":null,"plot_no":"205","facing":null,"status":null,"per_sq_ft_price":null,"per_sq_yard_price":null},"geometry":{"type":"Polygon","coordinates":[[[78.453742256197202,17.20979458355426],[78.453946953168213,17.209772668376548],[78.453917654943879,17.209676540871218],[78.453717137255595,17.209706880188829],[78.453742256197202,17.20979458355426]]]}},
{"type":"Feature","properties":{"fid":141,"sq_yards":null,"plot_no":"204","facing":null,"status":null,"per_sq_ft_price":null,"per_sq_yard_price":null},"geometry":{"type":"Polygon","coordinates":[[[78.453692695534343,17.209621541314053],[78.453898547406254,17.20959623177783],[78.453917654943879,17.209676540871218],[78.453717137255595,17.209706880188822],[78.453692695534343,17.209621541314053]]]}},
{"type":"Feature","properties":{"fid":142,"sq_yards":null,"plot_no":"202","facing":null,"status":null,"per_sq_ft_price":null,"per_sq_yard_price":null},"geometry":{"type":"Polygon","coordinates":[[[78.453618303521282,17.209502537791476],[78.453862880002717,17.209472117655832],[78.453822626790142,17.209347760089294],[78.453659575802519,17.209368445795985],[78.453618303521282,17.209502537791476]]]}},
{"type":"Feature","properties":{"fid":143,"sq_yards":null,"plot_no":"203","facing":null,"status":null,"per_sq_ft_price":null,"per_sq_yard_price":null},"geometry":{"type":"Polygon","coordinates":[[[78.453576776472858,17.20963005894566],[78.453898547406254,17.20959623177783],[78.453862880002717,17.209472117655832],[78.453618303521282,17.209502537791476],[78.453576776472858,17.20963005894566]]]}},
{"type":"Feature","properties":{"fid":144,"sq_yards":null,"plot_no":"185","facing":null,"status":null,"per_sq_ft_price":null,"per_sq_yard_price":null},"geometry":{"type":"Polygon","coordinates":[[[78.453582178282048,17.207524817521556],[78.453794908867479,17.207494397062966],[78.453774527494048,17.207387317008934],[78.453565618416121,17.207423821579766],[78.453582178282048,17.207524817521556]]]}},
{"type":"Feature","properties":{"fid":145,"sq_yards":null,"plot_no":"185","facing":null,"status":null,"per_sq_ft_price":null,"per_sq_yard_price":null},"geometry":{"type":"Polygon","coordinates":[[[78.453607477725498,17.207633722095402],[78.45382020831093,17.207603301636812],[78.453799826937498,17.20749622158278],[78.453590917859572,17.207532726153612],[78.453607477725498,17.207633722095402]]]}},
{"type":"Feature","properties":{"fid":146,"sq_yards":null,"plot_no":"185","facing":null,"status":null,"per_sq_ft_price":null,"per_sq_yard_price":null},"geometry":{"type":"Polygon","coordinates":[[[78.453630406770628,17.207740802057309],[78.45384313735606,17.207710381598719],[78.453822755982628,17.207603301544687],[78.453613846904702,17.20763980611552],[78.453630406770628,17.207740802057309]]]}},
{"type":"Feature","properties":{"fid":147,"sq_yards":null,"plot_no":"188","facing":null,"status":null,"per_sq_ft_price":null,"per_sq_yard_price":null},"geometry":{"type":"Polygon","coordinates":[[[78.45367771597013,17.207906167966041],[78.453882803540509,17.207875747570156],[78.453843137356046,17.207710381598716],[78.453630406770614,17.207740802057305],[78.45367771597013,17.207906167966041]]]}},
{"type":"Feature","properties":{"fid":148,"sq_yards":null,"plot_no":"189","facing":null,"status":null,"per_sq_ft_price":null,"per_sq_yard_price":null},"geometry":{"type":"Polygon","coordinates":[[[78.453784487062805,17.208054164348173],[78.453918239826081,17.207949518254818],[78.453855821869894,17.20786555797433],[78.453650734299515,17.207895978370214],[78.453784487062805,17.208054164348173]]]}},
{"type":"Feature","properties":{"fid":149,"sq_yards":null,"plot_no":"190","facing":null,"status":null,"per_sq_ft_price":null,"per_sq_yard_price":null},"geometry":{"type":"Polygon","coordinates":[[[78.453880534285176,17.208162217461528],[78.454014287048452,17.208063655502549],[78.453918239826081,17.207949518254814],[78.453784487062805,17.208054164348169],[78.453880534285176,17.208162217461528]]]}},
{"type":"Feature","properties":{"fid":150,"sq_yards":null,"plot_no":"190","facing":null,"status":null,"per_sq_ft_price":null,"per_sq_yard_price":null},"geometry":{"type":"Polygon","coordinates":[[[78.45397607197323,17.208272947538095],[78.454109824736506,17.208174385579117],[78.454013777514135,17.208060248331382],[78.453880024750859,17.208164894424737],[78.45397607197323,17.208272947538095]]]}},
{"type":"Feature","properties":{"fid":151,"sq_yards":null,"plot_no":"190","facing":null,"status":null,"per_sq_ft_price":null,"per_sq_yard_price":null},"geometry":{"type":"Polygon","coordinates":[[[78.454074157332983,17.208384894361316],[78.454207910096258,17.208286332402338],[78.454111862873887,17.208172195154603],[78.453978110110612,17.208276841247958],[78.454074157332983,17.208384894361316]]]}},
{"type":"Feature","properties":{"fid":152,"sq_yards":null,"plot_no":"190","facing":null,"status":null,"per_sq_ft_price":null,"per_sq_yard_price":null},"geometry":{"type":"Polygon","coordinates":[[[78.454168421185216,17.208494407492395],[78.454302173948491,17.208395845533417],[78.45420612672612,17.208281708285682],[78.454072373962845,17.208386354379037],[78.454168421185216,17.208494407492395]]]}},
{"type":"Feature","properties":{"fid":153,"sq_yards":null,"plot_no":"190","facing":null,"status":null,"per_sq_ft_price":null,"per_sq_yard_price":null},"geometry":{"type":"Polygon","coordinates":[[[78.454257589694066,17.20860927452911],[78.454391342457342,17.208510712570131],[78.454295295234971,17.208396575322396],[78.454161542471695,17.208501221415752],[78.454257589694066,17.20860927452911]]]}},
{"type":"Feature","properties":{"fid":154,"sq_yards":null,"plot_no":"190","facing":null,"status":null,"per_sq_ft_price":null,"per_sq_yard_price":null},"geometry":{"type":"Polygon","coordinates":[[[78.454349305874615,17.20871246011145],[78.454483058637891,17.208613898152471],[78.45438701141552,17.208499760904736],[78.454253258652244,17.208604406998091],[78.454349305874615,17.20871246011145]]]}},
{"type":"Feature","properties":{"fid":155,"sq_yards":null,"plot_no":"196","facing":null,"status":null,"per_sq_ft_price":null,"per_sq_yard_price":null},"geometry":{"type":"Polygon","coordinates":[[[78.454349305874601,17.20871246011145],[78.454483058637877,17.208613898152468],[78.454575793887088,17.208729738633235],[78.454444588795468,17.208820999379579],[78.454349305874601,17.20871246011145]]]}},
{"type":"Feature","properties":{"fid":156,"sq_yards":null,"plot_no":"197","facing":null,"status":null,"per_sq_ft_price":null,"per_sq_yard_price":null},"geometry":{"type":"Polygon","coordinates":[[[78.454568532781082,17.208750529010597],[78.45462076005056,17.20895982025543],[78.454427137002725,17.208985373240036],[78.45439656494257,17.208877077233449],[78.454568532781082,17.208750529010597]]]}},
{"type":"Feature","properties":{"fid":157,"sq_yards":null,"plot_no":"198","facing":null,"status":null,"per_sq_ft_price":null,"per_sq_yard_price":null},"geometry":{"type":"Polygon","coordinates":[[[78.454427137002725,17.208985373240036],[78.454469173585508,17.209149642342485],[78.454657701289946,17.209115571725821],[78.45462076005056,17.20895982025543],[78.454427137002725,17.208985373240036]]]}},
{"type":"Feature","properties":{"fid":158,"sq_yards":null,"plot_no":"199","facing":null,"status":null,"per_sq_ft_price":null,"per_sq_yard_price":null},"geometry":{"type":"Polygon","coordinates":[[[78.454280645881042,17.208976855578893],[78.454329051642986,17.209171544878458],[78.454469173585508,17.209149642342485],[78.45439656494257,17.208877077233449],[78.454280645881042,17.208976855578893]]]}},
{"type":"Feature","properties":{"fid":159,"sq_yards":null,"plot_no":"200","facing":null,"status":null,"per_sq_ft_price":null,"per_sq_yard_price":null},"geometry":{"type":"Polygon","coordinates":[[[78.454183834357153,17.209057164939793],[78.45421695408902,17.209188580182428],[78.454329051642986,17.209171544878458],[78.454280645881042,17.208976855578893],[78.454183834357153,17.209057164939793]]]}},
{"type":"Feature","properties":{"fid":160,"sq_yards":null,"plot_no":"201","facing":null,"status":null,"per_sq_ft_price":null,"per_sq_yard_price":null},"geometry":{"type":"Polygon","coordinates":[[[78.454183834357153,17.209057164939793],[78.454081927489867,17.209122872572774],[78.454098487355807,17.209209265906555],[78.45421695408902,17.209188580182428],[78.454183834357153,17.209057164939793]]]}},
{"type":"Feature","properties":{"fid":161,"sq_yards":null,"plot_no":"ut2","facing":null,"status":null,"per_sq_ft_price":null,"per_sq_yard_price":null},"geometry":{"type":"Polygon","coordinates":[[[78.454081927489867,17.209122872572774],[78.453950467631103,17.209224597677068],[78.454098487355807,17.209209265906555],[78.454081927489867,17.209122872572774]]]}},
{"type":"Feature","properties":{"fid":162,"sq_yards":null,"plot_no":"238","facing":null,"status":null,"per_sq_ft_price":null,"per_sq_yard_price":null},"geometry":{"type":"Polygon","coordinates":[[[78.454877737403237,17.208776253732928],[78.454939284713461,17.209057033632678],[78.454790188557112,17.209089536030582],[78.454733402402894,17.208813364297317],[78.454877737403237,17.208776253732928]]]}},
{"type":"Feature","properties":{"fid":163,"sq_yards":null,"plot_no":"239","facing":null,"status":null,"per_sq_ft_price":null,"per_sq_yard_price":null},"geometry":{"type":"Polygon","coordinates":[[[78.454942786701878,17.209067069276099],[78.455107398381685,17.209036545415806],[78.455110900370101,17.208916117802588],[78.455103896393268,17.208745511882992],[78.454877737403237,17.208776253732928],[78.454942786701878,17.209067069276099]]]}},
{"type":"Feature","properties":{"fid":164,"sq_yards":null,"plot_no":"237","facing":null,"status":null,"per_sq_ft_price":null,"per_sq_yard_price":null},"geometry":{"type":"Polygon","coordinates":[[[78.455063852433369,17.209163778878622],[78.455066400105054,17.20932804782548],[78.4548154544444,17.209364552016069],[78.454778513205014,17.209208800752645],[78.455063852433369,17.209163778878622]]]}},
{"type":"Feature","properties":{"fid":165,"sq_yards":null,"plot_no":"236","facing":null,"status":null,"per_sq_ft_price":null,"per_sq_yard_price":null},"geometry":{"type":"Polygon","coordinates":[[[78.455066400105054,17.20932804782548],[78.455079138463461,17.209503267874677],[78.454857491027155,17.20953247120007],[78.4548154544444,17.209364552016069],[78.455066400105054,17.20932804782548]]]}},
{"type":"Feature","properties":{"fid":166,"sq_yards":null,"plot_no":"235","facing":null,"status":null,"per_sq_ft_price":null,"per_sq_yard_price":null},"geometry":{"type":"Polygon","coordinates":[[[78.455079138463461,17.209503267874677],[78.455088055314334,17.209666319715812],[78.454898253774076,17.209694306211414],[78.454857491027155,17.20953247120007],[78.455079138463461,17.209503267874677]]]}},
{"type":"Feature","properties":{"fid":167,"sq_yards":null,"plot_no":"234","facing":null,"status":null,"per_sq_ft_price":null,"per_sq_yard_price":null},"geometry":{"type":"Polygon","coordinates":[[[78.454898253774076,17.209694306211414],[78.455088055314334,17.209666319715812],[78.455111239126651,17.209949591527938],[78.454973664855842,17.209972710771808],[78.454898253774076,17.209694306211414]]]}},
{"type":"Feature","properties":{"fid":168,"sq_yards":null,"plot_no":"228","facing":null,"status":null,"per_sq_ft_price":null,"per_sq_yard_price":null},"geometry":{"type":"Polygon","coordinates":[[[78.454679408776613,17.209393512002162],[78.454636098358009,17.209228026306313],[78.454467697259844,17.209254552699875],[78.454512281514297,17.209416387954349],[78.454679408776613,17.209393512002162]]]}},
{"type":"Feature","properties":{"fid":169,"sq_yards":null,"plot_no":"227","facing":null,"status":null,"per_sq_ft_price":null,"per_sq_yard_price":null},"geometry":{"type":"Polygon","coordinates":[[[78.45434668285499,17.209437073653369],[78.454512281514297,17.209416387954349],[78.454467697259844,17.209254552699875],[78.454311015451452,17.209277672030613],[78.45434668285499,17.209437073653369]]]}},
{"type":"Feature","properties":{"fid":170,"sq_yards":"226","plot_no":null,"facing":null,"status":null,"per_sq_ft_price":null,"per_sq_yard_price":null},"geometry":{"type":"Polygon","coordinates":[[[78.454512281514297,17.209416387954349],[78.454539032066918,17.209528334062583],[78.454373433407625,17.20954901974908],[78.45434668285499,17.209437073653369],[78.454512281514297,17.209416387954349]]]}},
{"type":"Feature","properties":{"fid":171,"sq_yards":null,"plot_no":"229","facing":null,"status":null,"per_sq_ft_price":null,"per_sq_yard_price":null},"geometry":{"type":"Polygon","coordinates":[[[78.454539032066918,17.209528334062583],[78.454705904562076,17.209500347541876],[78.454679408776613,17.209393512002162],[78.454512281514297,17.209416387954349],[78.454539032066918,17.209528334062583]]]}},
{"type":"Feature","properties":{"fid":172,"sq_yards":null,"plot_no":"230","facing":null,"status":null,"per_sq_ft_price":null,"per_sq_yard_price":null},"geometry":{"type":"Polygon","coordinates":[[[78.454570877962965,17.2096329792764],[78.454539032066918,17.209528334062583],[78.454705904562076,17.209500347541876],[78.454731381278918,17.209608643185444],[78.454570877962965,17.2096329792764]]]}},
{"type":"Feature","properties":{"fid":173,"sq_yards":null,"plot_no":"225","facing":null,"status":null,"per_sq_ft_price":null,"per_sq_yard_price":null},"geometry":{"type":"Polygon","coordinates":[[[78.454404005467822,17.209656098559847],[78.454570877962965,17.2096329792764],[78.454539032066918,17.209528334062583],[78.454373433407625,17.20954901974908],[78.454404005467822,17.209656098559847]]]}},
{"type":"Feature","properties":{"fid":174,"sq_yards":null,"plot_no":"231","facing":null,"status":null,"per_sq_ft_price":null,"per_sq_yard_price":null},"geometry":{"type":"Polygon","coordinates":[[[78.454598902351478,17.209742491646075],[78.454765774846621,17.209718155569526],[78.454731381278918,17.209608643185444],[78.454570877962965,17.2096329792764],[78.454598902351478,17.209742491646075]]]}},
{"type":"Feature","properties":{"fid":175,"sq_yards":null,"plot_no":"224","facing":null,"status":null,"per_sq_ft_price":null,"per_sq_yard_price":null},"geometry":{"type":"Polygon","coordinates":[[[78.45443585136384,17.209765610915834],[78.454598902351478,17.209742491646075],[78.454570877962965,17.2096329792764],[78.454404005467822,17.209656098559847],[78.45443585136384,17.209765610915834]]]}},
{"type":"Feature","properties":{"fid":176,"sq_yards":null,"plot_no":"223","facing":null,"status":null,"per_sq_ft_price":null,"per_sq_yard_price":null},"geometry":{"type":"Polygon","coordinates":[[[78.45446514958816,17.209875123206988],[78.454626926739977,17.209852003950918],[78.454598902351478,17.209742491646075],[78.45443585136384,17.209765610915834],[78.45446514958816,17.209875123206988]]]}},
{"type":"Feature","properties":{"fid":177,"sq_yards":null,"plot_no":"232","facing":null,"status":null,"per_sq_ft_price":null,"per_sq_yard_price":null},"geometry":{"type":"Polygon","coordinates":[[[78.454626926739977,17.209852003950918],[78.454795073070954,17.209824017479185],[78.454765774846621,17.209718155569526],[78.454598902351478,17.209742491646075],[78.454626926739977,17.209852003950918]]]}},
{"type":"Feature","properties":{"fid":178,"sq_yards":null,"plot_no":"222","facing":null,"status":null,"per_sq_ft_price":null,"per_sq_yard_price":null},"geometry":{"type":"Polygon","coordinates":[[[78.454626926739977,17.209852003950918],[78.454677370639246,17.210036227837463],[78.454516867323292,17.210062997475458],[78.45446514958816,17.209875123206988],[78.454626926739977,17.209852003950918]]]}},
{"type":"Feature","properties":{"fid":179,"sq_yards":null,"plot_no":"233","facing":null,"status":null,"per_sq_ft_price":null,"per_sq_yard_price":null},"geometry":{"type":"Polygon","coordinates":[[[78.454677370639246,17.210036227837463],[78.454845516970252,17.210000940581462],[78.454795073070954,17.209824017479185],[78.454626926739977,17.209852003950918],[78.454677370639246,17.210036227837463]]]}},
{"type":"Feature","properties":{"fid":180,"sq_yards":null,"plot_no":"214","facing":null,"status":null,"per_sq_ft_price":null,"per_sq_yard_price":null},"geometry":{"type":"Polygon","coordinates":[[[78.454079177328424,17.209314662953783],[78.454114844731961,17.209447294821441],[78.453969627446099,17.209467980516994],[78.453941603057615,17.2093304814384],[78.454079177328424,17.209314662953783]]]}},
{"type":"Feature","properties":{"fid":181,"sq_yards":null,"plot_no":"215","facing":null,"status":null,"per_sq_ft_price":null,"per_sq_yard_price":null},"geometry":{"type":"Polygon","coordinates":[[[78.454114844731961,17.209447294821441],[78.454251145166921,17.209430259541008],[78.454214203927535,17.20929641085446],[78.454079177328424,17.209314662953783],[78.454114844731961,17.209447294821441]]]}},
{"type":"Feature","properties":{"fid":182,"sq_yards":null,"plot_no":"218","facing":null,"status":null,"per_sq_ft_price":null,"per_sq_yard_price":null},"geometry":{"type":"Polygon","coordinates":[[[78.454251145166921,17.209430259541008],[78.454276621883736,17.209526387174321],[78.454141595284597,17.209543422445893],[78.454114844731961,17.209447294821441],[78.454251145166921,17.209430259541008]]]}},
{"type":"Feature","properties":{"fid":183,"sq_yards":null,"plot_no":"213","facing":null,"status":null,"per_sq_ft_price":null,"per_sq_yard_price":null},"geometry":{"type":"Polygon","coordinates":[[[78.454141595284597,17.209543422445893],[78.454002747177967,17.209560457715913],[78.453969627446099,17.209467980516987],[78.454114844731961,17.209447294821441],[78.454141595284597,17.209543422445893]]]}},
{"type":"Feature","properties":{"fid":184,"sq_yards":null,"plot_no":"217","facing":null,"status":null,"per_sq_ft_price":null,"per_sq_yard_price":null},"geometry":{"type":"Polygon","coordinates":[[[78.454276621883736,17.209526387174321],[78.45430209860055,17.209626165171255],[78.454164524329727,17.209638333215985],[78.454141595284597,17.209543422445893],[78.454276621883736,17.209526387174321]]]}},
{"type":"Feature","properties":{"fid":185,"sq_yards":null,"plot_no":"212","facing":null,"status":null,"per_sq_ft_price":null,"per_sq_yard_price":null},"geometry":{"type":"Polygon","coordinates":[[[78.454164524329727,17.209638333215985],[78.454024402387233,17.209655368477254],[78.454002747177967,17.209560457715913],[78.454141595284597,17.209543422445893],[78.454164524329727,17.209638333215985]]]}},
{"type":"Feature","properties":{"fid":186,"sq_yards":null,"plot_no":"218","facing":null,"status":null,"per_sq_ft_price":null,"per_sq_yard_price":null},"geometry":{"type":"Polygon","coordinates":[[[78.45430209860055,17.209626165171255],[78.454328849153214,17.209718642291087],[78.45419382255406,17.209735677544966],[78.454164524329727,17.209638333215985],[78.45430209860055,17.209626165171255]]]}},
{"type":"Feature","properties":{"fid":187,"sq_yards":null,"plot_no":"211","facing":null,"status":null,"per_sq_ft_price":null,"per_sq_yard_price":null},"geometry":{"type":"Polygon","coordinates":[[[78.454164524329727,17.209638333215985],[78.454024402387233,17.209655368477254],[78.454057522119115,17.209757580011924],[78.45419382255406,17.209735677544966],[78.454164524329727,17.209638333215985]]]}},
{"type":"Feature","properties":{"fid":188,"sq_yards":null,"plot_no":"219","facing":null,"status":null,"per_sq_ft_price":null,"per_sq_yard_price":null},"geometry":{"type":"Polygon","coordinates":[[[78.454328849153214,17.20971864229108],[78.454356873541727,17.209817203381078],[78.454219299270903,17.209831805019565],[78.45419382255406,17.209735677544966],[78.454328849153214,17.20971864229108]]]}},
{"type":"Feature","properties":{"fid":189,"sq_yards":null,"plot_no":"210","facing":null,"status":null,"per_sq_ft_price":null,"per_sq_yard_price":null},"geometry":{"type":"Polygon","coordinates":[[[78.454219299270903,17.209831805019565],[78.454081725000094,17.209851273869102],[78.454057522119115,17.209757580011921],[78.45419382255406,17.209735677544966],[78.454219299270903,17.209831805019565]]]}},
{"type":"Feature","properties":{"fid":190,"sq_yards":null,"plot_no":"220","facing":null,"status":null,"per_sq_ft_price":null,"per_sq_yard_price":null},"geometry":{"type":"Polygon","coordinates":[[[78.454356873541727,17.209817203381078],[78.454387955136184,17.209923308594554],[78.454247833193705,17.209937910224671],[78.454219299270903,17.209831805019565],[78.454356873541727,17.209817203381078]]]}},
{"type":"Feature","properties":{"fid":191,"sq_yards":null,"plot_no":"209","facing":null,"status":null,"per_sq_ft_price":null,"per_sq_yard_price":null},"geometry":{"type":"Polygon","coordinates":[[[78.454247833193705,17.209937910224671],[78.454110258922881,17.209954945458353],[78.454081725000094,17.209851273869102],[78.454219299270903,17.209831805019565],[78.454247833193705,17.209937910224671]]]}},
{"type":"Feature","properties":{"fid":192,"sq_yards":null,"plot_no":"221","facing":null,"status":null,"per_sq_ft_price":null,"per_sq_yard_price":null},"geometry":{"type":"Polygon","coordinates":[[[78.454257359288491,17.20993691754283],[78.454287576871934,17.210092200712495],[78.45443534182948,17.210086116705156],[78.454387955136184,17.209923308594554],[78.454257359288491,17.20993691754283]]]}},
{"type":"Feature","properties":{"fid":193,"sq_yards":null,"plot_no":"208","facing":null,"status":null,"per_sq_ft_price":null,"per_sq_yard_price":null},"geometry":{"type":"Polygon","coordinates":[[[78.454257359288491,17.209936917542827],[78.454287576871934,17.210092200712495],[78.454146181093606,17.210089767109579],[78.454110258922881,17.209954945458353],[78.454257359288491,17.209936917542827]]]}},
{"type":"Feature","properties":{"fid":194,"sq_yards":null,"plot_no":"180","facing":null,"status":null,"per_sq_ft_price":null,"per_sq_yard_price":null},"geometry":{"type":"Polygon","coordinates":[[[78.454274982655804,17.207298543642572],[78.45430682855185,17.207459163771148],[78.454142503728377,17.207487150597476],[78.454108110160675,17.207316795936933],[78.454274982655804,17.207298543642572]]]}},
{"type":"Feature","properties":{"fid":195,"sq_yards":null,"plot_no":"181","facing":null,"status":null,"per_sq_ft_price":null,"per_sq_yard_price":null},"geometry":{"type":"Polygon","coordinates":[[[78.454142503728377,17.207487150597476],[78.453964166710662,17.207512703783028],[78.453928499307111,17.207347216423528],[78.454108110160675,17.207316795936933],[78.454142503728377,17.207487150597476]]]}},
{"type":"Feature","properties":{"fid":196,"sq_yards":null,"plot_no":"179","facing":null,"status":null,"per_sq_ft_price":null,"per_sq_yard_price":null},"geometry":{"type":"Polygon","coordinates":[[[78.45430682855185,17.207459163771148],[78.454332305268636,17.207568677415232],[78.454162885101837,17.207588146500729],[78.454142503728377,17.207487150597476],[78.45430682855185,17.207459163771148]]]}},
{"type":"Feature","properties":{"fid":197,"sq_yards":null,"plot_no":"182","facing":null,"status":null,"per_sq_ft_price":null,"per_sq_yard_price":null},"geometry":{"type":"Polygon","coordinates":[[[78.454162885101837,17.207588146500729],[78.453988369591627,17.207619783760286],[78.453964166710662,17.207512703783028],[78.454142503728377,17.207487150597476],[78.454162885101837,17.207588146500729]]]}},
{"type":"Feature","properties":{"fid":198,"sq_yards":null,"plot_no":"178","facing":null,"status":null,"per_sq_ft_price":null,"per_sq_yard_price":null},"geometry":{"type":"Polygon","coordinates":[[[78.454332305268622,17.207568677415232],[78.454351412806261,17.2076769741773],[78.454189635654501,17.207701310519592],[78.454162885101837,17.207588146500729],[78.454332305268622,17.207568677415232]]]}},
{"type":"Feature","properties":{"fid":199,"sq_yards":null,"plot_no":"183","facing":null,"status":null,"per_sq_ft_price":null,"per_sq_yard_price":null},"geometry":{"type":"Polygon","coordinates":[[[78.454162885101837,17.207588146500729],[78.454189635654501,17.207701310519589],[78.454010024800937,17.207726863675575],[78.453988369591627,17.207619783760286],[78.454162885101837,17.207588146500729]]]}},
{"type":"Feature","properties":{"fid":200,"sq_yards":null,"plot_no":"177","facing":null,"status":null,"per_sq_ft_price":null,"per_sq_yard_price":null},"geometry":{"type":"Polygon","coordinates":[[[78.454358546286983,17.207677704267613],[78.454369373891623,17.207787826190561],[78.45421460283697,17.207805470028475],[78.454189635654501,17.207701310519589],[78.454358546286983,17.207677704267613]]]}},
{"type":"Feature","properties":{"fid":201,"sq_yards":null,"plot_no":"184","facing":null,"status":null,"per_sq_ft_price":null,"per_sq_yard_price":null},"geometry":{"type":"Polygon","coordinates":[[[78.454189635654501,17.207701310519589],[78.45421460283697,17.207805470028475],[78.454038813491081,17.207839054156683],[78.454010024800937,17.207726863675575],[78.454189635654501,17.207701310519589]]]}},
{"type":"Feature","properties":{"fid":202,"sq_yards":null,"plot_no":"172","facing":null,"status":null,"per_sq_ft_price":null,"per_sq_yard_price":null},"geometry":{"type":"Polygon","coordinates":[[[78.454571798338733,17.207382325874516],[78.454720837132086,17.207357989493381],[78.454688991236083,17.207204670218626],[78.454547595457726,17.207224139339925],[78.454571798338733,17.207382325874516]]]}},
{"type":"Feature","properties":{"fid":203,"sq_yards":null,"plot_no":"173","facing":null,"status":null,"per_sq_ft_price":null,"per_sq_yard_price":null},"geometry":{"type":"Polygon","coordinates":[[[78.454571798338733,17.207382325874516],[78.454408747351096,17.207404228614802],[78.454378175290898,17.207253343018035],[78.454547595457726,17.207224139339925],[78.454571798338733,17.207382325874516]]]}},
{"type":"Feature","properties":{"fid":204,"sq_yards":null,"plot_no":"171","facing":null,"status":null,"per_sq_ft_price":null,"per_sq_yard_price":null},"geometry":{"type":"Polygon","coordinates":[[[78.454720837132086,17.207357989493381],[78.454743766177231,17.207468720001689],[78.454589632040509,17.207494273186498],[78.454571798338733,17.207382325874516],[78.454720837132086,17.207357989493381]]]}},
{"type":"Feature","properties":{"fid":205,"sq_yards":null,"plot_no":"174","facing":null,"status":null,"per_sq_ft_price":null,"per_sq_yard_price":null},"geometry":{"type":"Polygon","coordinates":[[[78.454571798338733,17.207382325874516],[78.454408747351096,17.207404228614802],[78.45443422406791,17.207517392731617],[78.454589632040509,17.207494273186498],[78.454571798338733,17.207382325874516]]]}},
{"type":"Feature","properties":{"fid":206,"sq_yards":null,"plot_no":"170","facing":null,"status":null,"per_sq_ft_price":null,"per_sq_yard_price":null},"geometry":{"type":"Polygon","coordinates":[[[78.454743766177231,17.207468720001689],[78.454761599878992,17.207580667261393],[78.454612561085639,17.207602569978189],[78.454589632040509,17.207494273186498],[78.454743766177231,17.207468720001689]]]}},
{"type":"Feature","properties":{"fid":207,"sq_yards":null,"plot_no":"175","facing":null,"status":null,"per_sq_ft_price":null,"per_sq_yard_price":null},"geometry":{"type":"Polygon","coordinates":[[[78.454612561085639,17.207602569978189],[78.45445460544137,17.207626906327153],[78.45443422406791,17.207517392731614],[78.454589632040509,17.207494273186498],[78.454612561085639,17.207602569978189]]]}},
{"type":"Feature","properties":{"fid":208,"sq_yards":null,"plot_no":"169","facing":null,"status":null,"per_sq_ft_price":null,"per_sq_yard_price":null},"geometry":{"type":"Polygon","coordinates":[[[78.454774338237414,17.207577016808337],[78.454780707416617,17.207673145381357],[78.454635490130784,17.207708433072849],[78.454612561085639,17.207602569978189],[78.454774338237414,17.207577016808337]]]}},
{"type":"Feature","properties":{"fid":209,"sq_yards":null,"plot_no":"176","facing":null,"status":null,"per_sq_ft_price":null,"per_sq_yard_price":null},"geometry":{"type":"Polygon","coordinates":[[[78.454635490130784,17.207708433072849],[78.454485177501553,17.207742503940999],[78.45445460544137,17.207626906327153],[78.454612561085639,17.207602569978189],[78.454635490130784,17.207708433072849]]]}},
{"type":"Feature","properties":{"fid":210,"sq_yards":null,"plot_no":"165","facing":null,"status":null,"per_sq_ft_price":null,"per_sq_yard_price":null},"geometry":{"type":"Polygon","coordinates":[[[78.455123689519112,17.207135403791927],[78.455150440071762,17.207294807229573],[78.454989936755794,17.207319143620182],[78.45496063853146,17.207158523383004],[78.455123689519112,17.207135403791927]]]}},
{"type":"Feature","properties":{"fid":211,"sq_yards":null,"plot_no":"166","facing":null,"status":null,"per_sq_ft_price":null,"per_sq_yard_price":null},"geometry":{"type":"Polygon","coordinates":[[[78.45496063853146,17.207158523383004],[78.454784849185444,17.207192594354058],[78.454811599738107,17.2073568650193],[78.454989936755794,17.207319143620182],[78.45496063853146,17.207158523383004]]]}},
{"type":"Feature","properties":{"fid":212,"sq_yards":null,"plot_no":"164","facing":null,"status":null,"per_sq_ft_price":null,"per_sq_yard_price":null},"geometry":{"type":"Polygon","coordinates":[[[78.455150440071762,17.207294807229573],[78.455169547609358,17.207405537780989],[78.455007770457598,17.207431090975753],[78.454989936755794,17.207319143620182],[78.455150440071762,17.207294807229573]]]}},
{"type":"Feature","properties":{"fid":213,"sq_yards":null,"plot_no":"167","facing":null,"status":null,"per_sq_ft_price":null,"per_sq_yard_price":null},"geometry":{"type":"Polygon","coordinates":[[[78.454989936755794,17.207319143620182],[78.455007770457598,17.207431090975753],[78.454833254947374,17.207455427348428],[78.454811599738107,17.2073568650193],[78.454989936755794,17.207319143620182]]]}},
{"type":"Feature","properties":{"fid":214,"sq_yards":null,"plot_no":"163","facing":null,"status":null,"per_sq_ft_price":null,"per_sq_yard_price":null},"geometry":{"type":"Polygon","coordinates":[[[78.45518228596778,17.207405537780989],[78.455197571997871,17.207538170991608],[78.455039616353602,17.207586843705599],[78.455007770457598,17.207431090975753],[78.45518228596778,17.207405537780989]]]}},
{"type":"Feature","properties":{"fid":215,"sq_yards":null,"plot_no":"168","facing":null,"status":null,"per_sq_ft_price":null,"per_sq_yard_price":null},"geometry":{"type":"Polygon","coordinates":[[[78.455039616353602,17.207586843705599],[78.454874017694294,17.207642817310862],[78.454833254947374,17.207455427348428],[78.455007770457598,17.207431090975753],[78.455039616353602,17.207586843705599]]]}},
{"type":"Feature","properties":{"fid":216,"sq_yards":null,"plot_no":"159","facing":null,"status":null,"per_sq_ft_price":null,"per_sq_yard_price":null},"geometry":{"type":"Polygon","coordinates":[[[78.455515952787323,17.207044423089773],[78.455542703339972,17.207190441570948],[78.45540130756163,17.20721234433319],[78.45538092618817,17.207063892227257],[78.455515952787323,17.207044423089773]]]}},
{"type":"Feature","properties":{"fid":217,"sq_yards":null,"plot_no":"160","facing":null,"status":null,"per_sq_ft_price":null,"per_sq_yard_price":null},"geometry":{"type":"Polygon","coordinates":[[[78.45538092618817,17.207063892227257],[78.455231887394802,17.207095529571298],[78.455253542604083,17.207239114372403],[78.45540130756163,17.20721234433319],[78.45538092618817,17.207063892227257]]]}},
{"type":"Feature","properties":{"fid":218,"sq_yards":null,"plot_no":"158","facing":null,"status":null,"per_sq_ft_price":null,"per_sq_yard_price":null},"geometry":{"type":"Polygon","coordinates":[[[78.455542703339972,17.20719044157094],[78.45555544169838,17.20728778716105],[78.45542168893509,17.207313340369964],[78.45540130756163,17.20721234433319],[78.455542703339972,17.20719044157094]]]}},
{"type":"Feature","properties":{"fid":219,"sq_yards":null,"plot_no":"161","facing":null,"status":null,"per_sq_ft_price":null,"per_sq_yard_price":null},"geometry":{"type":"Polygon","coordinates":[[[78.45540130756163,17.20721234433319],[78.455253542604083,17.207239114372403],[78.455275197813393,17.207343760852165],[78.45542168893509,17.207313340369964],[78.45540130756163,17.20721234433319]]]}},
{"type":"Feature","properties":{"fid":220,"sq_yards":null,"plot_no":"157","facing":null,"status":null,"per_sq_ft_price":null,"per_sq_yard_price":null},"geometry":{"type":"Polygon","coordinates":[[[78.455440796472715,17.207426504538439],[78.455569453892608,17.207380265424195],[78.45555544169838,17.20728778716105],[78.45542168893509,17.207313340369964],[78.455440796472715,17.207426504538439]]]}},
{"type":"Feature","properties":{"fid":221,"sq_yards":null,"plot_no":"162","facing":null,"status":null,"per_sq_ft_price":null,"per_sq_yard_price":null},"geometry":{"type":"Polygon","coordinates":[[[78.45542168893509,17.207313340369964],[78.455275197813393,17.207343760852165],[78.455301948366056,17.207478827732711],[78.455440796472715,17.207426504538439],[78.45542168893509,17.207313340369964]]]}},
{"type":"Feature","properties":{"fid":222,"sq_yards":null,"plot_no":"153","facing":null,"status":null,"per_sq_ft_price":null,"per_sq_yard_price":null},"geometry":{"type":"Polygon","coordinates":[[[78.455747239122857,17.207173633225377],[78.4558886349012,17.20714564635168],[78.455861884348536,17.206999627811527],[78.455724310077727,17.207019096956873],[78.455747239122857,17.207173633225377]]]}},
{"type":"Feature","properties":{"fid":223,"sq_yards":null,"plot_no":"154","facing":null,"status":null,"per_sq_ft_price":null,"per_sq_yard_price":null},"geometry":{"type":"Polygon","coordinates":[[[78.455724310077727,17.207019096956873],[78.455581640463564,17.207054384777596],[78.455603295672873,17.207208921016612],[78.455747239122857,17.207173633225377],[78.455724310077727,17.207019096956873]]]}},
{"type":"Feature","properties":{"fid":224,"sq_yards":null,"plot_no":"152","facing":null,"status":null,"per_sq_ft_price":null,"per_sq_yard_price":null},"geometry":{"type":"Polygon","coordinates":[[[78.4558886349012,17.20714564635168],[78.455903920931277,17.207255160181159],[78.455757429809594,17.207277062939273],[78.455747239122857,17.207173633225377],[78.4558886349012,17.20714564635168]]]}},
{"type":"Feature","properties":{"fid":225,"sq_yards":null,"plot_no":"155","facing":null,"status":null,"per_sq_ft_price":null,"per_sq_yard_price":null},"geometry":{"type":"Polygon","coordinates":[[[78.455757429809594,17.207277062939266],[78.455617307867087,17.207302616153804],[78.455603295672873,17.207208921016612],[78.455747239122857,17.207173633225377],[78.455757429809594,17.207277062939266]]]}},
{"type":"Feature","properties":{"fid":226,"sq_yards":null,"plot_no":"151","facing":null,"status":null,"per_sq_ft_price":null,"per_sq_yard_price":null},"geometry":{"type":"Polygon","coordinates":[[[78.455770168167987,17.207356156210885],[78.455919461728541,17.207329872912073],[78.455903920931277,17.207255160181159],[78.455757429809594,17.207277062939266],[78.455770168167987,17.207356156210885]]]}},
{"type":"Feature","properties":{"fid":227,"sq_yards":null,"plot_no":"156","facing":null,"status":null,"per_sq_ft_price":null,"per_sq_yard_price":null},"geometry":{"type":"Polygon","coordinates":[[[78.455757429809594,17.207277062939266],[78.455617307867087,17.207302616153804],[78.455637944007705,17.207391930694943],[78.455770168167987,17.207356156210881],[78.455757429809594,17.207277062939266]]]}},
{"type":"Feature","properties":{"fid":228,"sq_yards":null,"plot_no":"150","facing":null,"status":null,"per_sq_ft_price":null,"per_sq_yard_price":null},"geometry":{"type":"Polygon","coordinates":[[[78.456105249426656,17.207172915599035],[78.456124356964253,17.207286079867249],[78.456014807081957,17.207304332162089],[78.455998247216016,17.207189951084693],[78.456105249426656,17.207172915599035]]]}},
{"type":"Feature","properties":{"fid":229,"sq_yards":null,"plot_no":"145","facing":null,"status":null,"per_sq_ft_price":null,"per_sq_yard_price":null},"geometry":{"type":"Polygon","coordinates":[[[78.456222442324005,17.207149796008849],[78.456105249426656,17.207172915599035],[78.456124356964253,17.207286079867249],[78.456237728354083,17.207266610750768],[78.456222442324005,17.207149796008849]]]}},
{"type":"Feature","properties":{"fid":230,"sq_yards":null,"plot_no":"146","facing":null,"status":null,"per_sq_ft_price":null,"per_sq_yard_price":null},"geometry":{"type":"Polygon","coordinates":[[[78.456209703965598,17.207070702652125],[78.456222442324005,17.207149796008849],[78.456105249426656,17.207172915599035],[78.456096332575768,17.207096255894147],[78.456209703965598,17.207070702652125]]]}},
{"type":"Feature","properties":{"fid":231,"sq_yards":null,"plot_no":"149","facing":null,"status":null,"per_sq_ft_price":null,"per_sq_yard_price":null},"geometry":{"type":"Polygon","coordinates":[[[78.456096332575768,17.207096255894147],[78.455981687350089,17.207113291386872],[78.455985508857623,17.207191167905041],[78.456105249426656,17.207172915599035],[78.456096332575768,17.207096255894147]]]}},
{"type":"Feature","properties":{"fid":232,"sq_yards":null,"plot_no":"147","facing":null,"status":null,"per_sq_ft_price":null,"per_sq_yard_price":null},"geometry":{"type":"Polygon","coordinates":[[[78.456209703965598,17.207070702652125],[78.456186774920468,17.206928334524825],[78.456069582023105,17.206951454142697],[78.456096332575768,17.207096255894147],[78.456209703965598,17.207070702652125]]]}},
{"type":"Feature","properties":{"fid":233,"sq_yards":null,"plot_no":"148","facing":null,"status":null,"per_sq_ft_price":null,"per_sq_yard_price":null},"geometry":{"type":"Polygon","coordinates":[[[78.456069582023105,17.206951454142697],[78.455960032140766,17.206975790579428],[78.455981687350089,17.207113291386872],[78.456096332575768,17.207096255894147],[78.456069582023105,17.206951454142697]]]}},
{"type":"Feature","properties":{"fid":234,"sq_yards":null,"plot_no":"141","facing":null,"status":null,"per_sq_ft_price":null,"per_sq_yard_price":null},"geometry":{"type":"Polygon","coordinates":[[[78.456577200877717,17.206838874535354],[78.456601403758725,17.206984893189787],[78.456456186472877,17.207009229620983],[78.456438352771087,17.206868078275459],[78.456577200877717,17.206838874535354]]]}},
{"type":"Feature","properties":{"fid":235,"sq_yards":null,"plot_no":"142","facing":null,"status":null,"per_sq_ft_price":null,"per_sq_yard_price":null},"geometry":{"type":"Polygon","coordinates":[[[78.456438352771087,17.206868078275459],[78.456295683156924,17.206897282010953],[78.456317338366205,17.207038433334201],[78.456456186472877,17.207009229620983],[78.456438352771087,17.206868078275459]]]}},
{"type":"Feature","properties":{"fid":236,"sq_yards":null,"plot_no":"140","facing":null,"status":null,"per_sq_ft_price":null,"per_sq_yard_price":null},"geometry":{"type":"Polygon","coordinates":[[[78.456601403758725,17.206984893189787],[78.456612868281297,17.207085889358336],[78.456475294010488,17.207106575313777],[78.456465574213198,17.207007656364176],[78.456601403758725,17.206984893189787]]]}},
{"type":"Feature","properties":{"fid":237,"sq_yards":null,"plot_no":"143","facing":null,"status":null,"per_sq_ft_price":null,"per_sq_yard_price":null},"geometry":{"type":"Polygon","coordinates":[[[78.456465574213198,17.207007656364176],[78.456317338366205,17.207038433334201],[78.456337719739679,17.207136995832272],[78.456475294010488,17.207106575313777],[78.456465574213198,17.207007656364176]]]}},
{"type":"Feature","properties":{"fid":238,"sq_yards":null,"plot_no":"139","facing":null,"status":null,"per_sq_ft_price":null,"per_sq_yard_price":null},"geometry":{"type":"Polygon","coordinates":[[[78.456612868281297,17.207085889358329],[78.456623058968034,17.207162549063934],[78.45648930620473,17.207191752752951],[78.456475294010488,17.207106575313777],[78.456612868281297,17.207085889358329]]]}},
{"type":"Feature","properties":{"fid":239,"sq_yards":null,"plot_no":"144","facing":null,"status":null,"per_sq_ft_price":null,"per_sq_yard_price":null},"geometry":{"type":"Polygon","coordinates":[[[78.456475294010488,17.207106575313777],[78.456337719739679,17.207136995832272],[78.456349184262251,17.207225823717646],[78.45648930620473,17.207191752752951],[78.456475294010488,17.207106575313777]]]}},
{"type":"Feature","properties":{"fid":240,"sq_yards":null,"plot_no":"136","facing":null,"status":null,"per_sq_ft_price":null,"per_sq_yard_price":null},"geometry":{"type":"Polygon","coordinates":[[[78.456943184237346,17.206766427182583],[78.456963565610806,17.206916096364893],[78.456824717504148,17.206947733737522],[78.456808157638207,17.206795630934977],[78.456943184237346,17.206766427182583]]]}},
{"type":"Feature","properties":{"fid":241,"sq_yards":null,"plot_no":"137","facing":null,"status":null,"per_sq_ft_price":null,"per_sq_yard_price":null},"geometry":{"type":"Polygon","coordinates":[[[78.456808157638207,17.206795630934977],[78.45666166651651,17.206829701973618],[78.45668204788997,17.206975720639569],[78.456824717504148,17.206947733737522],[78.456808157638207,17.206795630934977]]]}},
{"type":"Feature","properties":{"fid":242,"sq_yards":null,"plot_no":"135","facing":null,"status":null,"per_sq_ft_price":null,"per_sq_yard_price":null},"geometry":{"type":"Polygon","coordinates":[[[78.456963565610806,17.206916096364893],[78.456983946984238,17.207081584100322],[78.456848920385127,17.207112004623816],[78.456824717504148,17.206947733737522],[78.456963565610806,17.206916096364893]]]}},
{"type":"Feature","properties":{"fid":243,"sq_yards":null,"plot_no":"138","facing":null,"status":null,"per_sq_ft_price":null,"per_sq_yard_price":null},"geometry":{"type":"Polygon","coordinates":[[[78.456824717504148,17.206947733737522],[78.45668204788997,17.206975720639569],[78.456710072278455,17.207149726066003],[78.456848920385127,17.207112004623816],[78.456824717504148,17.206947733737522]]]}},
{"type":"Feature","properties":{"fid":244,"sq_yards":null,"plot_no":"132","facing":null,"status":null,"per_sq_ft_price":null,"per_sq_yard_price":null},"geometry":{"type":"Polygon","coordinates":[[[78.45714656781287,17.206733581052262],[78.457165029467816,17.206844034162572],[78.457018929461569,17.206872298868131],[78.457006191103133,17.206756700695468],[78.45714656781287,17.206733581052262]]]}},
{"type":"Feature","properties":{"fid":245,"sq_yards":null,"plot_no":"133","facing":null,"status":null,"per_sq_ft_price":null,"per_sq_yard_price":null},"geometry":{"type":"Polygon","coordinates":[[[78.457165029467816,17.206844034162568],[78.457179824191314,17.206932548564502],[78.457030393984127,17.206958693244744],[78.457018929461569,17.206872298868131],[78.457165029467816,17.206844034162568]]]}},
{"type":"Feature","properties":{"fid":246,"sq_yards":null,"plot_no":"134","facing":null,"status":null,"per_sq_ft_price":null,"per_sq_yard_price":null},"geometry":{"type":"Polygon","coordinates":[[[78.45705141227549,17.207066260271358],[78.457194973574857,17.207023184795357],[78.457179824191314,17.206932548564502],[78.457030393984127,17.206958693244744],[78.45705141227549,17.207066260271358]]]}}
]
}
