{
"type": "FeatureCollection",
"name": "green_medows_open_areas",
"crs": { "type": "name", "properties": { "name": "urn:ogc:def:crs:OGC:1.3:CRS84" } },
"features": [
{"type":"Feature","properties":{"area_type":"open-area1","area_sqyd":null,"area_sqm":null},"geometry":{"type":"Polygon","coordinates":[[[78.381625978959335,17.136112885522902],[78.381928877728939,17.136107372145023],[78.381893106826638,17.135367291569644],[78.381786371069708,17.135354426969382],[78.381625978959335,17.136112885522902]]]}},
{"type":"Feature","properties":{"area_type":"open_area-2","area_sqyd":null,"area_sqm":null},"geometry":{"type":"Polygon","coordinates":[[[78.380298801556648,17.135502553598418],[78.380218028551425,17.13587930193674],[78.380099369160376,17.135559157787764],[78.380298801556648,17.135502553598418]]]}},
{"type":"Feature","properties":{"area_type":"open_area-3","area_sqyd":null,"area_sqm":null},"geometry":{"type":"Polygon","coordinates":[[[78.380291493522861,17.135504575176899],[78.380194373599892,17.135131501683535],[78.380353034860164,17.135167338825021],[78.380291493522861,17.135504575176899]]]}},
{"type":"Feature","properties":{"area_type":"septic_tank","area_sqyd":null,"area_sqm":null},"geometry":{"type":"Polygon","coordinates":[[[78.380353034860164,17.135167338825021],[78.3803684201945,17.135089232225727],[78.380176103515367,17.135047881659858],[78.380194373599892,17.135128744980062],[78.380353034860164,17.135167338825021]]]}},
{"type":"Feature","properties":{"area_type":"social_infrastructure","area_sqyd":null,"area_sqm":null},"geometry":{"type":"Polygon","coordinates":[[[78.380066867641645,17.134301732090524],[78.379728390286388,17.134220317067086],[78.379954170067677,17.13491408954371],[78.380066867641645,17.134301732090524]]]}},
{"type":"Feature","properties":{"area_type":"open_area-4","area_sqyd":null,"area_sqm":null},"geometry":{"type":"Polygon","coordinates":[[[78.379729159553079,17.134219765723696],[78.379711851051951,17.134172901529109],[78.380067636908322,17.133869662337304],[78.380127255078889,17.133883445947664],[78.380064752158134,17.134296034877863],[78.379729159553079,17.134219765723696]]]}},
{"type":"Feature","properties":{"area_type":"empty_space","area_sqyd":null,"area_sqm":null},"geometry":{"type":"Polygon","coordinates":[[[78.380123601061882,17.133961553053677],[78.381022104586791,17.134219949504775],[78.381792909836747,17.134373222905584],[78.381792909836747,17.134277656771239],[78.380331303075351,17.133895391742424],[78.380127447395481,17.133884364854925],[78.380123601061882,17.133961553053677]]]}},
{"type":"Feature","properties":{"area_type":"open_space-2","area_sqyd":null,"area_sqm":null},"geometry":{"type":"Polygon","coordinates":[[[78.381770793418653,17.134600192277695],[78.381836661881238,17.134607543507787],[78.381806564320954,17.134327093873772],[78.381770793418653,17.134600192277695]]]}}
]
}
