{
"type": "FeatureCollection",
"name": "green_medows_plots",
"crs": { "type": "name", "properties": { "name": "urn:ogc:def:crs:OGC:1.3:CRS84" } },
"features": [
{"type":"Feature","properties":{"fid":1,"plot number":"1","part":"1","row":"1","column":"1","status":null,"sq_yards":null,"facing":null,"per_sq_ft_cost":null,"per_sq_yard_cost":null},"geometry":{"type":"Polygon","coordinates":[[[78.380297289380863,17.135895139790051],[78.380336409959938,17.135696589306097],[78.380479852083212,17.13571901970613],[78.380442470196527,17.135895970544762],[78.380297289380863,17.135895139790051]]]}},
{"type":"Feature","properties":{"fid":2,"plot number":"7","part":"1","row":"1","column":"2","status":null,"sq_yards":null,"facing":null,"per_sq_ft_cost":null,"per_sq_yard_cost":null},"geometry":{"type":"Polygon","coordinates":[[[78.380481416906363,17.135724170390198],[78.380650070069464,17.135752416074482],[78.380625728375819,17.135893644431544],[78.380442296327274,17.135898628959836],[78.380481416906363,17.135724170390198]]]}},
{"type":"Feature","properties":{"fid":3,"plot number":"2","part":"1","row":"2","column":"1","status":null,"sq_yards":null,"facing":null,"per_sq_ft_cost":null,"per_sq_yard_cost":null},"geometry":{"type":"Polygon","coordinates":[[[78.38048054756014,17.135717524346209],[78.380497065137959,17.135625310461364],[78.380355361707117,17.135598726269844],[78.380339713475465,17.135698416968417],[78.38048054756014,17.135717524346209]]]}},
{"type":"Feature","properties":{"fid":4,"plot number":"3","part":"1","row":"3","column":"1","status":null,"sq_yards":null,"facing":null,"per_sq_ft_cost":null,"per_sq_yard_cost":null},"geometry":{"type":"Polygon","coordinates":[[[78.380498977699617,17.135620492048048],[78.380515495277436,17.135528278163203],[78.380373791846594,17.135501693971683],[78.380358143614941,17.135601384670256],[78.380498977699617,17.135620492048048]]]}},
{"type":"Feature","properties":{"fid":5,"plot number":"4","part":"1","row":"4","column":"1","status":null,"sq_yards":null,"facing":null,"per_sq_ft_cost":null,"per_sq_yard_cost":null},"geometry":{"type":"Polygon","coordinates":[[[78.380517407839093,17.135523459749887],[78.380533925416913,17.135431245865043],[78.380392221986071,17.135404661673522],[78.380376573754418,17.135504352372095],[78.380517407839093,17.135523459749887]]]}},
{"type":"Feature","properties":{"fid":6,"plot number":"5","part":"1","row":"5","column":"1","status":null,"sq_yards":null,"facing":null,"per_sq_ft_cost":null,"per_sq_yard_cost":null},"geometry":{"type":"Polygon","coordinates":[[[78.38053583797857,17.135426427451726],[78.380552355556389,17.135334213566882],[78.380410652125548,17.135307629375362],[78.380395003893895,17.135407320073934],[78.38053583797857,17.135426427451726]]]}},
{"type":"Feature","properties":{"fid":7,"plot number":"6","part":"1","row":"6","column":"1","status":null,"sq_yards":null,"facing":null,"per_sq_ft_cost":null,"per_sq_yard_cost":null},"geometry":{"type":"Polygon","coordinates":[[[78.380554268118047,17.135329395153565],[78.380570785695866,17.135237181268721],[78.380429082265024,17.135210597077201],[78.380413434033372,17.135310287775773],[78.380554268118047,17.135329395153565]]]}},
{"type":"Feature","properties":{"fid":8,"plot number":"7","part":"1","row":"7","column":"1","status":null,"sq_yards":null,"facing":null,"per_sq_ft_cost":null,"per_sq_yard_cost":null},"geometry":{"type":"Polygon","coordinates":[[[78.380572698257524,17.135232362855405],[78.380589215835343,17.13514014897056],[78.380447512404501,17.13511356477904],[78.380431864172849,17.135213255477613],[78.380572698257524,17.135232362855405]]]}},
{"type":"Feature","properties":{"fid":9,"plot number":"1","part":"1","row":"2","column":"2","status":null,"sq_yards":null,"facing":null,"per_sq_ft_cost":null,"per_sq_yard_cost":null},"geometry":{"type":"Polygon","coordinates":[[[78.380485763637353,17.135722010425923],[78.380650939415673,17.135749425355176],[78.380666587647298,17.135658872997723],[78.380500542522796,17.135628965787401],[78.380485763637353,17.135722010425923]]]}},
{"type":"Feature","properties":{"fid":10,"plot number":"2","part":"1","row":"3","column":"2","status":null,"sq_yards":null,"facing":null,"per_sq_ft_cost":null,"per_sq_yard_cost":null},"geometry":{"type":"Polygon","coordinates":[[[78.380503846038351,17.135625310438879],[78.380669021816672,17.135652725368132],[78.380684670048296,17.13556217301068],[78.380518624923795,17.135532265800357],[78.380503846038351,17.135625310438879]]]}},
{"type":"Feature","properties":{"fid":11,"plot number":"3","part":"1","row":"4","column":"2","status":null,"sq_yards":null,"facing":null,"per_sq_ft_cost":null,"per_sq_yard_cost":null},"geometry":{"type":"Polygon","coordinates":[[[78.38052192843935,17.135528610451836],[78.380687104217671,17.135556025381089],[78.380702752449295,17.135465473023636],[78.380536707324794,17.135435565813314],[78.38052192843935,17.135528610451836]]]}},
{"type":"Feature","properties":{"fid":12,"plot number":"4","part":"1","row":"5","column":"2","status":null,"sq_yards":null,"facing":null,"per_sq_ft_cost":null,"per_sq_yard_cost":null},"geometry":{"type":"Polygon","coordinates":[[[78.380540010840349,17.135431910464792],[78.38070518661867,17.135459325394045],[78.380720834850294,17.135368773036593],[78.380554789725792,17.13533886582627],[78.380540010840349,17.135431910464792]]]}},
{"type":"Feature","properties":{"fid":13,"plot number":"5","part":"1","row":"6","column":"2","status":null,"sq_yards":null,"facing":null,"per_sq_ft_cost":null,"per_sq_yard_cost":null},"geometry":{"type":"Polygon","coordinates":[[[78.380558093241348,17.135335210477749],[78.380723269019668,17.135362625407002],[78.380738917251293,17.135272073049549],[78.380572872126791,17.135242165839227],[78.380558093241348,17.135335210477749]]]}},
{"type":"Feature","properties":{"fid":14,"plot number":"6","part":"1","row":"7","column":"2","status":null,"sq_yards":null,"facing":null,"per_sq_ft_cost":null,"per_sq_yard_cost":null},"geometry":{"type":"Polygon","coordinates":[[[78.380576175642346,17.135238510490705],[78.380741351420667,17.135265925419958],[78.380756999652291,17.135175373062506],[78.38059095452779,17.135145465852183],[78.380576175642346,17.135238510490705]]]}},
{"type":"Feature","properties":{"fid":15,"plot number":null,"part":"1","row":"1","column":"3","status":null,"sq_yards":null,"facing":null,"per_sq_ft_cost":null,"per_sq_yard_cost":null},"geometry":{"type":"Polygon","coordinates":[[[78.380854366426775,17.13613456314587],[78.380876100081835,17.136035703435368],[78.380708316264929,17.136008288548354],[78.380683105225074,17.136137055406806],[78.380854366426775,17.13613456314587]]]}},
{"type":"Feature","properties":{"fid":16,"plot number":null,"part":"1","row":"1","column":"4","status":null,"sq_yards":null,"facing":null,"per_sq_ft_cost":null,"per_sq_yard_cost":null},"geometry":{"type":"Polygon","coordinates":[[[78.380856105119193,17.136136224653164],[78.381003893973457,17.136132070884905],[78.3810212808975,17.136058133794467],[78.380876969428044,17.13603985720578],[78.380856105119193,17.136136224653164]]]}},
{"type":"Feature","properties":{"fid":17,"plot number":null,"part":"1","row":"2","column":"3","status":null,"sq_yards":null,"facing":null,"per_sq_ft_cost":null,"per_sq_yard_cost":null},"geometry":{"type":"Polygon","coordinates":[[[78.380876969428044,17.136035703435368],[78.380901311121676,17.135928536126759],[78.380732657958575,17.135900290469234],[78.380710054957333,17.136008288548354],[78.380876969428044,17.136035703435368]]]}},
{"type":"Feature","properties":{"fid":18,"plot number":null,"part":"1","row":"3","column":"3","status":null,"sq_yards":null,"facing":null,"per_sq_ft_cost":null,"per_sq_yard_cost":null},"geometry":{"type":"Polygon","coordinates":[[[78.380896840198346,17.13593316457629],[78.380921181891978,17.135825997267681],[78.380752528728877,17.135797751610156],[78.380729925727636,17.135905749689275],[78.380896840198346,17.13593316457629]]]}},
{"type":"Feature","properties":{"fid":19,"plot number":null,"part":"1","row":"4","column":"3","status":null,"sq_yards":null,"facing":null,"per_sq_ft_cost":null,"per_sq_yard_cost":null},"geometry":{"type":"Polygon","coordinates":[[[78.380916710968648,17.135830625717212],[78.38094105266228,17.135723458408602],[78.380772399499179,17.135695212751077],[78.380749796497938,17.135803210830197],[78.380916710968648,17.135830625717212]]]}},
{"type":"Feature","properties":{"fid":20,"plot number":null,"part":"1","row":"5","column":"3","status":null,"sq_yards":null,"facing":null,"per_sq_ft_cost":null,"per_sq_yard_cost":null},"geometry":{"type":"Polygon","coordinates":[[[78.380936581738951,17.135728086858133],[78.380960923432582,17.135620919549524],[78.380792270269481,17.135592673891999],[78.38076966726824,17.135700671971119],[78.380936581738951,17.135728086858133]]]}},
{"type":"Feature","properties":{"fid":21,"plot number":null,"part":"1","row":"6","column":"3","status":null,"sq_yards":null,"facing":null,"per_sq_ft_cost":null,"per_sq_yard_cost":null},"geometry":{"type":"Polygon","coordinates":[[[78.380956452509253,17.135625547999055],[78.380980794202884,17.135518380690446],[78.380812141039783,17.135490135032921],[78.380789538038542,17.13559813311204],[78.380956452509253,17.135625547999055]]]}},
{"type":"Feature","properties":{"fid":22,"plot number":null,"part":"1","row":"7","column":"3","status":null,"sq_yards":null,"facing":null,"per_sq_ft_cost":null,"per_sq_yard_cost":null},"geometry":{"type":"Polygon","coordinates":[[[78.380976323279555,17.135523009139977],[78.381000664973186,17.135415841831367],[78.380832011810085,17.135387596173842],[78.380809408808844,17.135495594252962],[78.380976323279555,17.135523009139977]]]}},
{"type":"Feature","properties":{"fid":23,"plot number":null,"part":"1","row":"8","column":"3","status":null,"sq_yards":null,"facing":null,"per_sq_ft_cost":null,"per_sq_yard_cost":null},"geometry":{"type":"Polygon","coordinates":[[[78.380996194049857,17.135420470280899],[78.381020535743488,17.135313302972289],[78.380851882580387,17.135285057314764],[78.380829279579146,17.135393055393884],[78.380996194049857,17.135420470280899]]]}},
{"type":"Feature","properties":{"fid":24,"plot number":null,"part":"1","row":"9","column":"3","status":null,"sq_yards":null,"facing":null,"per_sq_ft_cost":null,"per_sq_yard_cost":null},"geometry":{"type":"Polygon","coordinates":[[[78.381016064820159,17.13531793142182],[78.38104040651379,17.135210764113211],[78.380871753350689,17.135182518455686],[78.380849150349448,17.135290516534806],[78.381016064820159,17.13531793142182]]]}},
{"type":"Feature","properties":{"fid":25,"plot number":null,"part":"1","row":"2","column":"4","status":null,"sq_yards":null,"facing":null,"per_sq_ft_cost":null,"per_sq_yard_cost":null},"geometry":{"type":"Polygon","coordinates":[[[78.381020933158979,17.136056139984881],[78.38104353616022,17.135952295705941],[78.380903571421754,17.135930696088629],[78.38088009907429,17.136038694150063],[78.381020933158979,17.136056139984881]]]}},
{"type":"Feature","properties":{"fid":26,"plot number":null,"part":"1","row":"3","column":"4","status":null,"sq_yards":null,"facing":null,"per_sq_ft_cost":null,"per_sq_yard_cost":null},"geometry":{"type":"Polygon","coordinates":[[[78.38104130069857,17.135953126426042],[78.381063903699811,17.135849282147102],[78.380923938961345,17.13582768252979],[78.38090046661388,17.135935680591224],[78.38104130069857,17.135953126426042]]]}},
{"type":"Feature","properties":{"fid":27,"plot number":null,"part":"1","row":"4","column":"4","status":null,"sq_yards":null,"facing":null,"per_sq_ft_cost":null,"per_sq_yard_cost":null},"geometry":{"type":"Polygon","coordinates":[[[78.381061668238161,17.135850112867203],[78.381084271239402,17.135746268588264],[78.380944306500936,17.135724668970951],[78.380920834153471,17.135832667032386],[78.381061668238161,17.135850112867203]]]}},
{"type":"Feature","properties":{"fid":28,"plot number":null,"part":"1","row":"5","column":"4","status":null,"sq_yards":null,"facing":null,"per_sq_ft_cost":null,"per_sq_yard_cost":null},"geometry":{"type":"Polygon","coordinates":[[[78.381082035777752,17.135747099308364],[78.381104638778993,17.135643255029425],[78.380964674040527,17.135621655412113],[78.380941201693062,17.135729653473547],[78.381082035777752,17.135747099308364]]]}},
{"type":"Feature","properties":{"fid":29,"plot number":null,"part":"1","row":"6","column":"4","status":null,"sq_yards":null,"facing":null,"per_sq_ft_cost":null,"per_sq_yard_cost":null},"geometry":{"type":"Polygon","coordinates":[[[78.381102403317342,17.135644085749526],[78.381125006318584,17.135540241470586],[78.380985041580118,17.135518641853274],[78.380961569232653,17.135626639914708],[78.381102403317342,17.135644085749526]]]}},
{"type":"Feature","properties":{"fid":30,"plot number":null,"part":"1","row":"7","column":"4","status":null,"sq_yards":null,"facing":null,"per_sq_ft_cost":null,"per_sq_yard_cost":null},"geometry":{"type":"Polygon","coordinates":[[[78.381122770856933,17.135541072190687],[78.381145373858175,17.135437227911748],[78.381005409119709,17.135415628294435],[78.380981936772244,17.135523626355869],[78.381122770856933,17.135541072190687]]]}},
{"type":"Feature","properties":{"fid":31,"plot number":null,"part":"1","row":"8","column":"4","status":null,"sq_yards":null,"facing":null,"per_sq_ft_cost":null,"per_sq_yard_cost":null},"geometry":{"type":"Polygon","coordinates":[[[78.381143138396524,17.135438058631848],[78.381165741397766,17.135334214352909],[78.3810257766593,17.135312614735597],[78.381002304311835,17.135420612797031],[78.381143138396524,17.135438058631848]]]}},
{"type":"Feature","properties":{"fid":32,"plot number":null,"part":"1","row":"9","column":"4","status":null,"sq_yards":null,"facing":null,"per_sq_ft_cost":null,"per_sq_yard_cost":null},"geometry":{"type":"Polygon","coordinates":[[[78.381163505936115,17.13533504507301],[78.381186108937356,17.13523120079407],[78.381046144198891,17.135209601176758],[78.381022671851426,17.135317599238192],[78.381163505936115,17.13533504507301]]]}},
{"type":"Feature","properties":{"fid":33,"plot number":null,"part":"1","row":"1","column":"5","status":null,"sq_yards":null,"facing":null,"per_sq_ft_cost":null,"per_sq_yard_cost":null},"geometry":{"type":"Polygon","coordinates":[[[78.381240008401761,17.136119111127361],[78.381271304865024,17.135964590871588],[78.38112699339554,17.135940498992174],[78.381090480855093,17.136123264895897],[78.381240008401761,17.136119111127361]]]}},
{"type":"Feature","properties":{"fid":34,"plot number":null,"part":"1","row":"2","column":"5","status":null,"sq_yards":null,"facing":null,"per_sq_ft_cost":null,"per_sq_yard_cost":null},"geometry":{"type":"Polygon","coordinates":[[[78.381270609388054,17.135961766306572],[78.381291473696876,17.135862906504151],[78.381150639612216,17.135844629896258],[78.381133252688173,17.135940166690368],[78.381270609388054,17.135961766306572]]]}},
{"type":"Feature","properties":{"fid":35,"plot number":null,"part":"1","row":"3","column":"5","status":null,"sq_yards":null,"facing":null,"per_sq_ft_cost":null,"per_sq_yard_cost":null},"geometry":{"type":"Polygon","coordinates":[[[78.381290024786551,17.135865952579156],[78.381310889095374,17.135767092776735],[78.381170055010713,17.135748816168842],[78.381152668086671,17.135844352962952],[78.381290024786551,17.135865952579156]]]}},
{"type":"Feature","properties":{"fid":36,"plot number":null,"part":"1","row":"4","column":"5","status":null,"sq_yards":null,"facing":null,"per_sq_ft_cost":null,"per_sq_yard_cost":null},"geometry":{"type":"Polygon","coordinates":[[[78.381309440185049,17.13577013885174],[78.381330304493872,17.135671279049319],[78.381189470409211,17.135653002441426],[78.381172083485168,17.135748539235536],[78.381309440185049,17.13577013885174]]]}},
{"type":"Feature","properties":{"fid":37,"plot number":null,"part":"1","row":"5","column":"5","status":null,"sq_yards":null,"facing":null,"per_sq_ft_cost":null,"per_sq_yard_cost":null},"geometry":{"type":"Polygon","coordinates":[[[78.381328855583547,17.135674325124324],[78.38134971989237,17.135575465321903],[78.381208885807709,17.13555718871401],[78.381191498883666,17.13565272550812],[78.381328855583547,17.135674325124324]]]}},
{"type":"Feature","properties":{"fid":38,"plot number":null,"part":"1","row":"6","column":"5","status":null,"sq_yards":null,"facing":null,"per_sq_ft_cost":null,"per_sq_yard_cost":null},"geometry":{"type":"Polygon","coordinates":[[[78.381348270982045,17.135578511396908],[78.381369135290868,17.135479651594487],[78.381228301206207,17.135461374986594],[78.381210914282164,17.135556911780704],[78.381348270982045,17.135578511396908]]]}},
{"type":"Feature","properties":{"fid":39,"plot number":null,"part":"1","row":"7","column":"5","status":null,"sq_yards":null,"facing":null,"per_sq_ft_cost":null,"per_sq_yard_cost":null},"geometry":{"type":"Polygon","coordinates":[[[78.381367686380543,17.135482697669492],[78.381388550689366,17.135383837867071],[78.381247716604705,17.135365561259178],[78.381230329680662,17.135461098053288],[78.381367686380543,17.135482697669492]]]}},
{"type":"Feature","properties":{"fid":40,"plot number":null,"part":"1","row":"8","column":"5","status":null,"sq_yards":null,"facing":null,"per_sq_ft_cost":null,"per_sq_yard_cost":null},"geometry":{"type":"Polygon","coordinates":[[[78.38138710177904,17.135386883942076],[78.381407966087863,17.135288024139655],[78.381267132003202,17.135269747531762],[78.38124974507916,17.135365284325871],[78.38138710177904,17.135386883942076]]]}},
{"type":"Feature","properties":{"fid":41,"plot number":null,"part":"1","row":"1","column":"6","status":null,"sq_yards":null,"facing":null,"per_sq_ft_cost":null,"per_sq_yard_cost":null},"geometry":{"type":"Polygon","coordinates":[[[78.381243833525033,17.136119609579588],[78.381274260642101,17.135966750833038],[78.381415094726762,17.135988350446155],[78.381383798263514,17.136117117318424],[78.381243833525033,17.136119609579588]]]}},
{"type":"Feature","properties":{"fid":42,"plot number":null,"part":"1","row":"2","column":"6","status":null,"sq_yards":null,"facing":null,"per_sq_ft_cost":null,"per_sq_yard_cost":null},"geometry":{"type":"Polygon","coordinates":[[[78.3812768686807,17.135962597061003],[78.381415964072957,17.135982535165947],[78.381437697728003,17.135891152167346],[78.381292516912325,17.135871214052599],[78.3812768686807,17.135962597061003]]]}},
{"type":"Feature","properties":{"fid":43,"plot number":null,"part":"1","row":"3","column":"6","status":null,"sq_yards":null,"facing":null,"per_sq_ft_cost":null,"per_sq_yard_cost":null},"geometry":{"type":"Polygon","coordinates":[[[78.381296573861292,17.135865675668121],[78.381435669253548,17.135885613773066],[78.381457402908595,17.135794230774465],[78.381312222092916,17.135774292659718],[78.381296573861292,17.135865675668121]]]}},
{"type":"Feature","properties":{"fid":44,"plot number":null,"part":"1","row":"4","column":"6","status":null,"sq_yards":null,"facing":null,"per_sq_ft_cost":null,"per_sq_yard_cost":null},"geometry":{"type":"Polygon","coordinates":[[[78.381316279041883,17.13576875427524],[78.38145537443414,17.135788692380185],[78.381477108089186,17.135697309381584],[78.381331927273507,17.135677371266837],[78.381316279041883,17.13576875427524]]]}},
{"type":"Feature","properties":{"fid":45,"plot number":null,"part":"1","row":"5","column":"6","status":null,"sq_yards":null,"facing":null,"per_sq_ft_cost":null,"per_sq_yard_cost":null},"geometry":{"type":"Polygon","coordinates":[[[78.381335984222474,17.135671832882359],[78.381475079614731,17.135691770987304],[78.381496813269777,17.135600387988703],[78.381351632454098,17.135580449873956],[78.381335984222474,17.135671832882359]]]}},
{"type":"Feature","properties":{"fid":46,"plot number":null,"part":"1","row":"6","column":"6","status":null,"sq_yards":null,"facing":null,"per_sq_ft_cost":null,"per_sq_yard_cost":null},"geometry":{"type":"Polygon","coordinates":[[[78.381355689403065,17.135574911489478],[78.381494784795322,17.135594849594423],[78.381516518450368,17.135503466595821],[78.38137133763469,17.135483528481075],[78.381355689403065,17.135574911489478]]]}},
{"type":"Feature","properties":{"fid":47,"plot number":null,"part":"1","row":"7","column":"6","status":null,"sq_yards":null,"facing":null,"per_sq_ft_cost":null,"per_sq_yard_cost":null},"geometry":{"type":"Polygon","coordinates":[[[78.381375394583657,17.135477990096597],[78.381514489975913,17.135497928201541],[78.38153622363096,17.13540654520294],[78.381391042815281,17.135386607088194],[78.381375394583657,17.135477990096597]]]}},
{"type":"Feature","properties":{"fid":48,"plot number":null,"part":"1","row":"8","column":"6","status":null,"sq_yards":null,"facing":null,"per_sq_ft_cost":null,"per_sq_yard_cost":null},"geometry":{"type":"Polygon","coordinates":[[[78.381395099764248,17.135381068703715],[78.381534195156505,17.13540100680866],[78.381555928811551,17.135309623810059],[78.381410747995872,17.135289685695312],[78.381395099764248,17.135381068703715]]]}},
{"type":"Feature","properties":{"fid":49,"plot number":null,"part":"2","row":"1","column":"1","status":null,"sq_yards":null,"facing":null,"per_sq_ft_cost":null,"per_sq_yard_cost":null},"geometry":{"type":"Polygon","coordinates":[[[78.380051090536398,17.134914846635844],[78.380223221084321,17.134948907755888],[78.380242346700754,17.134811832478711],[78.380069346806636,17.134779432852969],[78.380051090536398,17.134914846635844]]]}},
{"type":"Feature","properties":{"fid":50,"plot number":null,"part":"2","row":"2","column":"1","status":null,"sq_yards":null,"facing":null,"per_sq_ft_cost":null,"per_sq_yard_cost":null},"geometry":{"type":"Polygon","coordinates":[[[78.380241651223784,17.134808841744263],[78.380256430109242,17.134710812088514],[78.380088646292322,17.134679243205319],[78.380074736753116,17.134775611358279],[78.380241651223784,17.134808841744263]]]}},
{"type":"Feature","properties":{"fid":51,"plot number":null,"part":"2","row":"3","column":"1","status":null,"sq_yards":null,"facing":null,"per_sq_ft_cost":null,"per_sq_yard_cost":null},"geometry":{"type":"Polygon","coordinates":[[[78.380257051070785,17.134707726373907],[78.380271829956243,17.134609696718158],[78.380104046139323,17.134578127834963],[78.380090136600117,17.134674495987923],[78.380257051070785,17.134707726373907]]]}},
{"type":"Feature","properties":{"fid":52,"plot number":null,"part":"2","row":"4","column":"1","status":null,"sq_yards":null,"facing":null,"per_sq_ft_cost":null,"per_sq_yard_cost":null},"geometry":{"type":"Polygon","coordinates":[[[78.380272450917786,17.134606611003552],[78.380287229803244,17.134508581347802],[78.380119445986324,17.134477012464608],[78.380105536447118,17.134573380617567],[78.380272450917786,17.134606611003552]]]}},
{"type":"Feature","properties":{"fid":53,"plot number":null,"part":"2","row":"5","column":"1","status":null,"sq_yards":null,"facing":null,"per_sq_ft_cost":null,"per_sq_yard_cost":null},"geometry":{"type":"Polygon","coordinates":[[[78.380287850764788,17.134505495633196],[78.380302629650245,17.134407465977446],[78.380134845833325,17.134375897094252],[78.380120936294119,17.134472265247211],[78.380287850764788,17.134505495633196]]]}},
{"type":"Feature","properties":{"fid":54,"plot number":null,"part":"2","row":"6","column":"1","status":null,"sq_yards":null,"facing":null,"per_sq_ft_cost":null,"per_sq_yard_cost":null},"geometry":{"type":"Polygon","coordinates":[[[78.380303250611789,17.13440438026284],[78.380318029497246,17.134306350607091],[78.380150245680326,17.134274781723896],[78.380136336141121,17.134371149876856],[78.380303250611789,17.13440438026284]]]}},
{"type":"Feature","properties":{"fid":55,"plot number":null,"part":"2","row":"7","column":"1","status":null,"sq_yards":null,"facing":null,"per_sq_ft_cost":null,"per_sq_yard_cost":null},"geometry":{"type":"Polygon","coordinates":[[[78.38031865045879,17.134303264892484],[78.380333429344248,17.134205235236735],[78.380165645527327,17.13417366635354],[78.380151735988122,17.1342700345065],[78.38031865045879,17.134303264892484]]]}},
{"type":"Feature","properties":{"fid":56,"plot number":null,"part":"2","row":"8","column":"1","status":null,"sq_yards":null,"facing":null,"per_sq_ft_cost":null,"per_sq_yard_cost":null},"geometry":{"type":"Polygon","coordinates":[[[78.380334050305791,17.134202149522128],[78.380348829191249,17.134104119866379],[78.380181045374329,17.134072550983184],[78.380167135835123,17.134168919136144],[78.380334050305791,17.134202149522128]]]}},
{"type":"Feature","properties":{"fid":57,"plot number":null,"part":"2","row":"9","column":"1","status":null,"sq_yards":null,"facing":null,"per_sq_ft_cost":null,"per_sq_yard_cost":null},"geometry":{"type":"Polygon","coordinates":[[[78.380349450152792,17.134101034151772],[78.38036422903825,17.134003004496023],[78.38019644522133,17.133971435612828],[78.380182535682124,17.134067803765788],[78.380349450152792,17.134101034151772]]]}},
{"type":"Feature","properties":{"fid":58,"plot number":null,"part":"2","row":"1","column":"2","status":null,"sq_yards":null,"facing":null,"per_sq_ft_cost":null,"per_sq_yard_cost":null},"geometry":{"type":"Polygon","coordinates":[[[78.380225307515204,17.134948076996928],[78.380391352639705,17.134982968869682],[78.380413955640947,17.134847555136446],[78.380242694439232,17.134815155516929],[78.380225307515204,17.134948076996928]]]}},
{"type":"Feature","properties":{"fid":59,"plot number":null,"part":"2","row":"2","column":"2","status":null,"sq_yards":null,"facing":null,"per_sq_ft_cost":null,"per_sq_yard_cost":null},"geometry":{"type":"Polygon","coordinates":[[[78.380247910516417,17.134810170959579],[78.380413086294752,17.134842570579956],[78.38043047321878,17.134750356260952],[78.380255734632257,17.13471463358453],[78.380247910516417,17.134810170959579]]]}},
{"type":"Feature","properties":{"fid":60,"plot number":null,"part":"2","row":"3","column":"2","status":null,"sq_yards":null,"facing":null,"per_sq_ft_cost":null,"per_sq_yard_cost":null},"geometry":{"type":"Polygon","coordinates":[[[78.380263310363418,17.134710717120861],[78.380428486141753,17.134743116741237],[78.380445873065781,17.134650902422234],[78.380271134479258,17.134615179745811],[78.380263310363418,17.134710717120861]]]}},
{"type":"Feature","properties":{"fid":61,"plot number":null,"part":"2","row":"4","column":"2","status":null,"sq_yards":null,"facing":null,"per_sq_ft_cost":null,"per_sq_yard_cost":null},"geometry":{"type":"Polygon","coordinates":[[[78.380278710210419,17.134611263282142],[78.380443885988754,17.134643662902519],[78.380461272912783,17.134551448583515],[78.38028653432626,17.134515725907093],[78.380278710210419,17.134611263282142]]]}},
{"type":"Feature","properties":{"fid":62,"plot number":null,"part":"2","row":"5","column":"2","status":null,"sq_yards":null,"facing":null,"per_sq_ft_cost":null,"per_sq_yard_cost":null},"geometry":{"type":"Polygon","coordinates":[[[78.38029411005742,17.134511809443424],[78.380459285835755,17.134544209063801],[78.380476672759784,17.134451994744797],[78.380301934173261,17.134416272068375],[78.38029411005742,17.134511809443424]]]}},
{"type":"Feature","properties":{"fid":63,"plot number":null,"part":"2","row":"6","column":"2","status":null,"sq_yards":null,"facing":null,"per_sq_ft_cost":null,"per_sq_yard_cost":null},"geometry":{"type":"Polygon","coordinates":[[[78.380309509904421,17.134412355604706],[78.380474685682756,17.134444755225083],[78.380492072606785,17.134352540906079],[78.380317334020262,17.134316818229657],[78.380309509904421,17.134412355604706]]]}},
{"type":"Feature","properties":{"fid":64,"plot number":null,"part":"2","row":"7","column":"2","status":null,"sq_yards":null,"facing":null,"per_sq_ft_cost":null,"per_sq_yard_cost":null},"geometry":{"type":"Polygon","coordinates":[[[78.380324909751423,17.134312901765988],[78.380490085529757,17.134345301386364],[78.380507472453786,17.134253087067361],[78.380332733867263,17.134217364390938],[78.380324909751423,17.134312901765988]]]}},
{"type":"Feature","properties":{"fid":65,"plot number":null,"part":"2","row":"8","column":"2","status":null,"sq_yards":null,"facing":null,"per_sq_ft_cost":null,"per_sq_yard_cost":null},"geometry":{"type":"Polygon","coordinates":[[[78.380340309598424,17.134213447927269],[78.380505485376759,17.134245847547646],[78.380522872300787,17.134153633228642],[78.380348133714264,17.13411791055222],[78.380340309598424,17.134213447927269]]]}},
{"type":"Feature","properties":{"fid":66,"plot number":null,"part":"2","row":"9","column":"2","status":null,"sq_yards":null,"facing":null,"per_sq_ft_cost":null,"per_sq_yard_cost":null},"geometry":{"type":"Polygon","coordinates":[[[78.380355709445425,17.134113994088551],[78.38052088522376,17.134146393708928],[78.380538272147788,17.134054179389924],[78.380363533561265,17.134018456713502],[78.380355709445425,17.134113994088551]]]}},
{"type":"Feature","properties":{"fid":67,"plot number":null,"part":"2","row":"1","column":"3","status":null,"sq_yards":null,"facing":null,"per_sq_ft_cost":null,"per_sq_yard_cost":null},"geometry":{"type":"Polygon","coordinates":[[[78.380470115405487,17.135002907079752],[78.380616165567361,17.135030322115089],[78.380634421837613,17.134892416138765],[78.380496195791565,17.134866662601723],[78.380470115405487,17.135002907079752]]]}},
{"type":"Feature","properties":{"fid":68,"plot number":null,"part":"2","row":"2","column":"3","status":null,"sq_yards":null,"facing":null,"per_sq_ft_cost":null,"per_sq_yard_cost":null},"geometry":{"type":"Polygon","coordinates":[[[78.380496195791565,17.134862508805096],[78.380635291183793,17.134888262342713],[78.380651808761627,17.134790232728857],[78.380511844023175,17.134766140697199],[78.380496195791565,17.134862508805096]]]}},
{"type":"Feature","properties":{"fid":69,"plot number":null,"part":"2","row":"3","column":"3","status":null,"sq_yards":null,"facing":null,"per_sq_ft_cost":null,"per_sq_yard_cost":null},"geometry":{"type":"Polygon","coordinates":[[[78.380513443620217,17.134763482242469],[78.380652539012445,17.134789235780087],[78.380669056590278,17.134691206166231],[78.380529091851827,17.134667114134572],[78.380513443620217,17.134763482242469]]]}},
{"type":"Feature","properties":{"fid":70,"plot number":null,"part":"2","row":"4","column":"3","status":null,"sq_yards":null,"facing":null,"per_sq_ft_cost":null,"per_sq_yard_cost":null},"geometry":{"type":"Polygon","coordinates":[[[78.380530691448868,17.134664455679843],[78.380669786841096,17.13469020921746],[78.38068630441893,17.134592179603604],[78.380546339680478,17.134568087571946],[78.380530691448868,17.134664455679843]]]}},
{"type":"Feature","properties":{"fid":71,"plot number":null,"part":"2","row":"5","column":"3","status":null,"sq_yards":null,"facing":null,"per_sq_ft_cost":null,"per_sq_yard_cost":null},"geometry":{"type":"Polygon","coordinates":[[[78.38054793927752,17.134565429117217],[78.380687034669748,17.134591182654834],[78.380703552247581,17.134493153040978],[78.38056358750913,17.13446906100932],[78.38054793927752,17.134565429117217]]]}},
{"type":"Feature","properties":{"fid":72,"plot number":null,"part":"2","row":"6","column":"3","status":null,"sq_yards":null,"facing":null,"per_sq_ft_cost":null,"per_sq_yard_cost":null},"geometry":{"type":"Polygon","coordinates":[[[78.380565187106171,17.13446640255459],[78.380704282498399,17.134492156092207],[78.380720800076233,17.134394126478352],[78.380580835337781,17.134370034446693],[78.380565187106171,17.13446640255459]]]}},
{"type":"Feature","properties":{"fid":73,"plot number":null,"part":"2","row":"7","column":"3","status":null,"sq_yards":null,"facing":null,"per_sq_ft_cost":null,"per_sq_yard_cost":null},"geometry":{"type":"Polygon","coordinates":[[[78.380582434934823,17.134367375991964],[78.380721530327051,17.134393129529581],[78.380738047904885,17.134295099915725],[78.380598083166433,17.134271007884067],[78.380582434934823,17.134367375991964]]]}},
{"type":"Feature","properties":{"fid":74,"plot number":null,"part":"2","row":"8","column":"3","status":null,"sq_yards":null,"facing":null,"per_sq_ft_cost":null,"per_sq_yard_cost":null},"geometry":{"type":"Polygon","coordinates":[[[78.380598778643304,17.134267185711789],[78.380737874035574,17.1342929393319],[78.380756130305798,17.13415752509588],[78.380620512298378,17.134106017814563],[78.380598778643304,17.134267185711789]]]}},
{"type":"Feature","properties":{"fid":75,"plot number":null,"part":"2","row":"1","column":"4","status":null,"sq_yards":null,"facing":null,"per_sq_ft_cost":null,"per_sq_yard_cost":null},"geometry":{"type":"Polygon","coordinates":[[[78.380616861044317,17.135029823659927],[78.380786383553641,17.135059730966677],[78.380808986554882,17.134925148048428],[78.380638594699363,17.134891917683237],[78.380616861044317,17.135029823659927]]]}},
{"type":"Feature","properties":{"fid":76,"plot number":null,"part":"2","row":"2","column":"3","status":null,"sq_yards":null,"facing":null,"per_sq_ft_cost":null,"per_sq_yard_cost":null},"geometry":{"type":"Polygon","coordinates":[[[78.380641202737962,17.134887763887175],[78.380804639823864,17.134918501975864],[78.380825504132702,17.134826287694537],[78.380654242930987,17.134793888071314],[78.380641202737962,17.134887763887175]]]}},
{"type":"Feature","properties":{"fid":77,"plot number":null,"part":"2","row":"3","column":"3","status":null,"sq_yards":null,"facing":null,"per_sq_ft_cost":null,"per_sq_yard_cost":null},"geometry":{"type":"Polygon","coordinates":[[[78.380658589661977,17.134789401947653],[78.380822026747879,17.134820140036343],[78.380842891056716,17.134727925755016],[78.380671629855001,17.134695526131793],[78.380658589661977,17.134789401947653]]]}},
{"type":"Feature","properties":{"fid":78,"plot number":null,"part":"2","row":"4","column":"3","status":null,"sq_yards":null,"facing":null,"per_sq_ft_cost":null,"per_sq_yard_cost":null},"geometry":{"type":"Polygon","coordinates":[[[78.380675976585991,17.134691040008132],[78.380839413671893,17.134721778096822],[78.38086027798073,17.134629563815494],[78.380689016779016,17.134597164192272],[78.380675976585991,17.134691040008132]]]}},
{"type":"Feature","properties":{"fid":79,"plot number":null,"part":"2","row":"5","column":"3","status":null,"sq_yards":null,"facing":null,"per_sq_ft_cost":null,"per_sq_yard_cost":null},"geometry":{"type":"Polygon","coordinates":[[[78.380693363510005,17.134592678068611],[78.380856800595907,17.1346234161573],[78.380877664904745,17.134531201875973],[78.38070640370303,17.13449880225275],[78.380693363510005,17.134592678068611]]]}},
{"type":"Feature","properties":{"fid":80,"plot number":null,"part":"2","row":"6","column":"3","status":null,"sq_yards":null,"facing":null,"per_sq_ft_cost":null,"per_sq_yard_cost":null},"geometry":{"type":"Polygon","coordinates":[[[78.380710750434019,17.134494316129089],[78.380874187519922,17.134525054217779],[78.380895051828759,17.134432839936451],[78.380723790627044,17.134400440313229],[78.380710750434019,17.134494316129089]]]}},
{"type":"Feature","properties":{"fid":81,"plot number":null,"part":"2","row":"7","column":"3","status":null,"sq_yards":null,"facing":null,"per_sq_ft_cost":null,"per_sq_yard_cost":null},"geometry":{"type":"Polygon","coordinates":[[[78.380728137358034,17.134395954189568],[78.380891574443936,17.134426692278257],[78.380912438752773,17.13433447799693],[78.380741177551059,17.134302078373707],[78.380728137358034,17.134395954189568]]]}},
{"type":"Feature","properties":{"fid":82,"plot number":null,"part":"2","row":"8","column":"4","status":null,"sq_yards":null,"facing":null,"per_sq_ft_cost":null,"per_sq_yard_cost":null},"geometry":{"type":"Polygon","coordinates":[[[78.380744307197446,17.134296262379401],[78.380912960360575,17.134328662089374],[78.380927739246019,17.134204047789314],[78.38076082477528,17.134163340433197],[78.380744307197446,17.134296262379401]]]}},
{"type":"Feature","properties":{"fid":83,"plot number":null,"part":"1","row":"1","column":"5","status":null,"sq_yards":null,"facing":null,"per_sq_ft_cost":null,"per_sq_yard_cost":null},"geometry":{"type":"Polygon","coordinates":[[[78.380894530221113,17.13508332450526],[78.381066660769022,17.135116554836227],[78.381090133116473,17.134976987406255],[78.380918002568563,17.134946249327232],[78.380894530221113,17.13508332450526]]]}},
{"type":"Feature","properties":{"fid":84,"plot number":null,"part":"2","row":"2","column":"5","status":null,"sq_yards":null,"facing":null,"per_sq_ft_cost":null,"per_sq_yard_cost":null},"geometry":{"type":"Polygon","coordinates":[[[78.380922349299567,17.134944587809304],[78.380936258838787,17.13484655822516],[78.381105781348111,17.134878127079933],[78.381089263770278,17.134973664370925],[78.380922349299567,17.134944587809304]]]}},
{"type":"Feature","properties":{"fid":85,"plot number":null,"part":"2","row":"3","column":"5","status":null,"sq_yards":null,"facing":null,"per_sq_ft_cost":null,"per_sq_yard_cost":null},"geometry":{"type":"Polygon","coordinates":[[[78.380939736223581,17.134844342842086],[78.380953645762801,17.134746313257942],[78.381123168272126,17.134777882112715],[78.381106650694292,17.134873419403707],[78.380939736223581,17.134844342842086]]]}},
{"type":"Feature","properties":{"fid":86,"plot number":null,"part":"2","row":"4","column":"5","status":null,"sq_yards":null,"facing":null,"per_sq_ft_cost":null,"per_sq_yard_cost":null},"geometry":{"type":"Polygon","coordinates":[[[78.380957123147596,17.134744097874869],[78.380971032686816,17.134646068290724],[78.38114055519614,17.134677637145497],[78.381124037618306,17.134773174436489],[78.380957123147596,17.134744097874869]]]}},
{"type":"Feature","properties":{"fid":87,"plot number":null,"part":"2","row":"5","column":"5","status":null,"sq_yards":null,"facing":null,"per_sq_ft_cost":null,"per_sq_yard_cost":null},"geometry":{"type":"Polygon","coordinates":[[[78.38097451007161,17.134643852907651],[78.38098841961083,17.134545823323506],[78.381157942120154,17.134577392178279],[78.381141424542321,17.134672929469271],[78.38097451007161,17.134643852907651]]]}},
{"type":"Feature","properties":{"fid":88,"plot number":null,"part":"2","row":"6","column":"5","status":null,"sq_yards":null,"facing":null,"per_sq_ft_cost":null,"per_sq_yard_cost":null},"geometry":{"type":"Polygon","coordinates":[[[78.380991896995624,17.134543607940433],[78.381005806534844,17.134445578356289],[78.381175329044169,17.134477147211062],[78.381158811466335,17.134572684502054],[78.380991896995624,17.134543607940433]]]}},
{"type":"Feature","properties":{"fid":89,"plot number":null,"part":"2","row":"7","column":"5","status":null,"sq_yards":null,"facing":null,"per_sq_ft_cost":null,"per_sq_yard_cost":null},"geometry":{"type":"Polygon","coordinates":[[[78.381009283919639,17.134443362973215],[78.381023193458859,17.134345333389071],[78.381192715968183,17.134376902243844],[78.381176198390349,17.134472439534836],[78.381009283919639,17.134443362973215]]]}},
{"type":"Feature","properties":{"fid":90,"plot number":null,"part":"2","row":"8","column":"5","status":null,"sq_yards":null,"facing":null,"per_sq_ft_cost":null,"per_sq_yard_cost":null},"geometry":{"type":"Polygon","coordinates":[[[78.381026670843653,17.134343118005997],[78.381040580382873,17.134245088421853],[78.381210102892197,17.134276657276626],[78.381193585314364,17.134372194567618],[78.381026670843653,17.134343118005997]]]}},
{"type":"Feature","properties":{"fid":91,"plot number":null,"part":"2","row":"1","column":"6","status":null,"sq_yards":null,"facing":null,"per_sq_ft_cost":null,"per_sq_yard_cost":null},"geometry":{"type":"Polygon","coordinates":[[[78.381068921069158,17.135114228713242],[78.381207147115205,17.135139151457881],[78.381226272731638,17.135002907079741],[78.381090654724176,17.134982138110892],[78.381068921069158,17.135114228713242]]]}},
{"type":"Feature","properties":{"fid":92,"plot number":null,"part":"2","row":"2","column":"6","status":null,"sq_yards":null,"facing":null,"per_sq_ft_cost":null,"per_sq_yard_cost":null},"geometry":{"type":"Polygon","coordinates":[[[78.381247137040489,17.134905708285505],[78.381226272731638,17.134999584044884],[78.381091524070399,17.134976322799186],[78.3811063029558,17.134879954750311],[78.381247137040489,17.134905708285505]]]}},
{"type":"Feature","properties":{"fid":93,"plot number":null,"part":"2","row":"3","column":"6","status":null,"sq_yards":null,"facing":null,"per_sq_ft_cost":null,"per_sq_yard_cost":null},"geometry":{"type":"Polygon","coordinates":[[[78.381265103528662,17.134807678681117],[78.381244239219811,17.134901554440496],[78.381109490558572,17.134878293194799],[78.381124269443973,17.134781925145923],[78.381265103528662,17.134807678681117]]]}},
{"type":"Feature","properties":{"fid":94,"plot number":null,"part":"2","row":"4","column":"6","status":null,"sq_yards":null,"facing":null,"per_sq_ft_cost":null,"per_sq_yard_cost":null},"geometry":{"type":"Polygon","coordinates":[[[78.381283070016835,17.134709649076729],[78.381262205707984,17.134803524836109],[78.381127457046745,17.134780263590411],[78.381142235932145,17.134683895541535],[78.381283070016835,17.134709649076729]]]}},
{"type":"Feature","properties":{"fid":95,"plot number":null,"part":"2","row":"5","column":"6","status":null,"sq_yards":null,"facing":null,"per_sq_ft_cost":null,"per_sq_yard_cost":null},"geometry":{"type":"Polygon","coordinates":[[[78.381301036505008,17.134611619472341],[78.381280172196156,17.134705495231721],[78.381145423534917,17.134682233986023],[78.381160202420318,17.134585865937147],[78.381301036505008,17.134611619472341]]]}},
{"type":"Feature","properties":{"fid":96,"plot number":null,"part":"2","row":"6","column":"6","status":null,"sq_yards":null,"facing":null,"per_sq_ft_cost":null,"per_sq_yard_cost":null},"geometry":{"type":"Polygon","coordinates":[[[78.38131900299318,17.134513589867954],[78.381298138684329,17.134607465627333],[78.38116339002309,17.134584204381635],[78.381178168908491,17.13448783633276],[78.38131900299318,17.134513589867954]]]}},
{"type":"Feature","properties":{"fid":97,"plot number":null,"part":"2","row":"7","column":"6","status":null,"sq_yards":null,"facing":null,"per_sq_ft_cost":null,"per_sq_yard_cost":null},"geometry":{"type":"Polygon","coordinates":[[[78.381336969481353,17.134415560263566],[78.381316105172502,17.134509436022945],[78.381181356511263,17.134486174777248],[78.381196135396664,17.134389806728372],[78.381336969481353,17.134415560263566]]]}},
{"type":"Feature","properties":{"fid":98,"plot number":null,"part":"2","row":"8","column":"6","status":null,"sq_yards":null,"facing":null,"per_sq_ft_cost":null,"per_sq_yard_cost":null},"geometry":{"type":"Polygon","coordinates":[[[78.381354935969526,17.134317530659178],[78.381334071660675,17.134411406418558],[78.381199322999436,17.13438814517286],[78.381214101884837,17.134291777123984],[78.381354935969526,17.134317530659178]]]}},
{"type":"Feature","properties":{"fid":99,"plot number":null,"part":"2","row":"1","column":"7","status":null,"sq_yards":null,"facing":null,"per_sq_ft_cost":null,"per_sq_yard_cost":null},"geometry":{"type":"Polygon","coordinates":[[[78.381290952089017,17.135156265073924],[78.381436132904696,17.135180357055003],[78.381456997213505,17.135042451190017],[78.381314424436468,17.135017528432414],[78.381290952089017,17.135156265073924]]]}},
{"type":"Feature","properties":{"fid":100,"plot number":null,"part":"2","row":"2","column":"7","status":null,"sq_yards":null,"facing":null,"per_sq_ft_cost":null,"per_sq_yard_cost":null},"geometry":{"type":"Polygon","coordinates":[[[78.381317901821276,17.135015866915126],[78.381328333975702,17.1349211604049],[78.381474384137562,17.134946083175432],[78.381456997213505,17.135040789672956],[78.381317901821276,17.135015866915126]]]}},
{"type":"Feature","properties":{"fid":101,"plot number":null,"part":"2","row":"3","column":"7","status":null,"sq_yards":null,"facing":null,"per_sq_ft_cost":null,"per_sq_yard_cost":null},"geometry":{"type":"Polygon","coordinates":[[[78.38133441939911,17.134916729676675],[78.381344851553536,17.13482202316645],[78.381490901715395,17.134846945936982],[78.381473514791338,17.134941652434506],[78.38133441939911,17.134916729676675]]]}},
{"type":"Feature","properties":{"fid":102,"plot number":null,"part":"2","row":"4","column":"7","status":null,"sq_yards":null,"facing":null,"per_sq_ft_cost":null,"per_sq_yard_cost":null},"geometry":{"type":"Polygon","coordinates":[[[78.381350936976943,17.134817592438225],[78.381361369131369,17.134722885927999],[78.381507419293229,17.134747808698531],[78.381490032369172,17.134842515196056],[78.381350936976943,17.134817592438225]]]}},
{"type":"Feature","properties":{"fid":103,"plot number":null,"part":"2","row":"5","column":"7","status":null,"sq_yards":null,"facing":null,"per_sq_ft_cost":null,"per_sq_yard_cost":null},"geometry":{"type":"Polygon","coordinates":[[[78.381367454554777,17.134718455199774],[78.381377886709203,17.134623748689549],[78.381523936871062,17.134648671460081],[78.381506549947005,17.134743377957605],[78.381367454554777,17.134718455199774]]]}},
{"type":"Feature","properties":{"fid":104,"plot number":null,"part":"2","row":"6","column":"7","status":null,"sq_yards":null,"facing":null,"per_sq_ft_cost":null,"per_sq_yard_cost":null},"geometry":{"type":"Polygon","coordinates":[[[78.38138397213261,17.134619317961324],[78.381394404287036,17.134524611451099],[78.381540454448896,17.13454953422163],[78.381523067524839,17.134644240719155],[78.38138397213261,17.134619317961324]]]}},
{"type":"Feature","properties":{"fid":105,"plot number":null,"part":"2","row":"7","column":"7","status":null,"sq_yards":null,"facing":null,"per_sq_ft_cost":null,"per_sq_yard_cost":null},"geometry":{"type":"Polygon","coordinates":[[[78.381400489710444,17.134520180722873],[78.38141092186487,17.134425474212648],[78.381556972026729,17.13445039698318],[78.381539585102672,17.134545103480704],[78.381400489710444,17.134520180722873]]]}},
{"type":"Feature","properties":{"fid":106,"plot number":null,"part":"2","row":"8","column":"7","status":null,"sq_yards":null,"facing":null,"per_sq_ft_cost":null,"per_sq_yard_cost":null},"geometry":{"type":"Polygon","coordinates":[[[78.381417007288277,17.134421043484423],[78.381427439442703,17.134326336974198],[78.381573489604563,17.134351259744729],[78.381556102680506,17.134445966242254],[78.381417007288277,17.134421043484423]]]}},
{"type":"Feature","properties":{"fid":107,"plot number":null,"part":"2","row":"1","column":"8","status":null,"sq_yards":null,"facing":null,"per_sq_ft_cost":null,"per_sq_yard_cost":null},"geometry":{"type":"Polygon","coordinates":[[[78.381437523858594,17.135182350874],[78.381573141866056,17.13520395057828],[78.381597483559688,17.135064383213955],[78.381458388167417,17.13504444501049],[78.381437523858594,17.135182350874]]]}},
{"type":"Feature","properties":{"fid":108,"plot number":null,"part":"2","row":"2","column":"8","status":null,"sq_yards":null,"facing":null,"per_sq_ft_cost":null,"per_sq_yard_cost":null},"geometry":{"type":"Polygon","coordinates":[[[78.381594875521088,17.135061890938641],[78.38161487048373,17.134969676728456],[78.381475775091459,17.134951400032715],[78.381461865552225,17.135042783493432],[78.381594875521088,17.135061890938641]]]}},
{"type":"Feature","properties":{"fid":109,"plot number":null,"part":"2","row":"3","column":"8","status":null,"sq_yards":null,"facing":null,"per_sq_ft_cost":null,"per_sq_yard_cost":null},"geometry":{"type":"Polygon","coordinates":[[[78.381611682880987,17.1349633075416],[78.381631677843629,17.134871093331416],[78.381492582451358,17.134852816635675],[78.381478672912124,17.134944200096392],[78.381611682880987,17.1349633075416]]]}},
{"type":"Feature","properties":{"fid":110,"plot number":null,"part":"2","row":"4","column":"8","status":null,"sq_yards":null,"facing":null,"per_sq_ft_cost":null,"per_sq_yard_cost":null},"geometry":{"type":"Polygon","coordinates":[[[78.381628490240885,17.13486472414456],[78.381648485203527,17.134772509934376],[78.381509389811256,17.134754233238635],[78.381495480272022,17.134845616699351],[78.381628490240885,17.13486472414456]]]}},
{"type":"Feature","properties":{"fid":111,"plot number":null,"part":"2","row":"5","column":"8","status":null,"sq_yards":null,"facing":null,"per_sq_ft_cost":null,"per_sq_yard_cost":null},"geometry":{"type":"Polygon","coordinates":[[[78.381645297600784,17.134766140747519],[78.381665292563426,17.134673926537335],[78.381526197171155,17.134655649841594],[78.381512287631921,17.134747033302311],[78.381645297600784,17.134766140747519]]]}},
{"type":"Feature","properties":{"fid":112,"plot number":null,"part":"2","row":"6","column":"8","status":null,"sq_yards":null,"facing":null,"per_sq_ft_cost":null,"per_sq_yard_cost":null},"geometry":{"type":"Polygon","coordinates":[[[78.381662104960682,17.134667557350479],[78.381682099923324,17.134575343140295],[78.381543004531053,17.134557066444554],[78.381529094991819,17.134648449905271],[78.381662104960682,17.134667557350479]]]}},
{"type":"Feature","properties":{"fid":113,"plot number":null,"part":"2","row":"7","column":"8","status":null,"sq_yards":null,"facing":null,"per_sq_ft_cost":null,"per_sq_yard_cost":null},"geometry":{"type":"Polygon","coordinates":[[[78.381678912320581,17.134568973953439],[78.381698907283223,17.134476759743254],[78.381559811890952,17.134458483047514],[78.381545902351718,17.13454986650823],[78.381678912320581,17.134568973953439]]]}},
{"type":"Feature","properties":{"fid":114,"plot number":null,"part":"2","row":"8","column":"8","status":null,"sq_yards":null,"facing":null,"per_sq_ft_cost":null,"per_sq_yard_cost":null},"geometry":{"type":"Polygon","coordinates":[[[78.381695719680479,17.134470390556398],[78.381715714643121,17.134378176346214],[78.381576619250851,17.134359899650473],[78.381562709711616,17.13445128311119],[78.381695719680479,17.134470390556398]]]}},
{"type":"Feature","properties":{"fid":115,"plot number":null,"part":"3","row":"1","column":"1","status":null,"sq_yards":null,"facing":null,"per_sq_ft_cost":null,"per_sq_yard_cost":null},"geometry":{"type":"Polygon","coordinates":[[[78.380472549574748,17.13614569524443],[78.380472549574748,17.136004467078926],[78.380596866081575,17.13600280557046],[78.380590780658167,17.136140710722763],[78.380472549574748,17.13614569524443]]]}},
{"type":"Feature","properties":{"fid":116,"plot number":null,"part":"3","row":"1","column":"2","status":null,"sq_yards":null,"facing":null,"per_sq_ft_cost":null,"per_sq_yard_cost":null},"geometry":{"type":"Polygon","coordinates":[[[78.380366141599609,17.13614519679227],[78.380367010945818,17.136008122397513],[78.380470463143823,17.136006460889075],[78.380466985759014,17.136142704531455],[78.380366141599609,17.13614519679227]]]}},
{"type":"Feature","properties":{"fid":117,"plot number":null,"part":"3","row":"1","column":"3","status":null,"sq_yards":null,"facing":null,"per_sq_ft_cost":null,"per_sq_yard_cost":null},"geometry":{"type":"Polygon","coordinates":[[[78.379341124471509,17.136154002780234],[78.379286645442846,17.136011113112655],[78.37954860843162,17.136013328457178],[78.379542812790277,17.136159541137236],[78.379341124471509,17.136154002780234]]]}},
{"type":"Feature","properties":{"fid":118,"plot number":null,"part":"3","row":"1","column":"4","status":null,"sq_yards":null,"facing":null,"per_sq_ft_cost":null,"per_sq_yard_cost":null},"geometry":{"type":"Polygon","coordinates":[[[78.380263703638846,17.136146304464152],[78.380264572985055,17.136009230069394],[78.38036802518306,17.136007568560956],[78.380364547798251,17.136143812203336],[78.380263703638846,17.136146304464152]]]}},
{"type":"Feature","properties":{"fid":119,"plot number":null,"part":"3","row":"1","column":"5","status":null,"sq_yards":null,"facing":null,"per_sq_ft_cost":null,"per_sq_yard_cost":null},"geometry":{"type":"Polygon","coordinates":[[[78.380161265678083,17.136147412136033],[78.380162135024293,17.136010337741276],[78.380265587222297,17.136008676232837],[78.380262109837489,17.136144919875218],[78.380161265678083,17.136147412136033]]]}},
{"type":"Feature","properties":{"fid":120,"plot number":null,"part":"3","row":"1","column":"6","status":null,"sq_yards":null,"facing":null,"per_sq_ft_cost":null,"per_sq_yard_cost":null},"geometry":{"type":"Polygon","coordinates":[[[78.38005882771732,17.136148519807914],[78.38005969706353,17.136011445413157],[78.380163149261534,17.136009783904719],[78.380159671876726,17.136146027547099],[78.38005882771732,17.136148519807914]]]}},
{"type":"Feature","properties":{"fid":121,"plot number":null,"part":"3","row":"1","column":"7","status":null,"sq_yards":null,"facing":null,"per_sq_ft_cost":null,"per_sq_yard_cost":null},"geometry":{"type":"Polygon","coordinates":[[[78.379956389756558,17.136149627479796],[78.379957259102767,17.136012553085038],[78.380060711300771,17.1360108915766],[78.380057233915963,17.13614713521898],[78.379956389756558,17.136149627479796]]]}},
{"type":"Feature","properties":{"fid":122,"plot number":null,"part":"3","row":"1","column":"8","status":null,"sq_yards":null,"facing":null,"per_sq_ft_cost":null,"per_sq_yard_cost":null},"geometry":{"type":"Polygon","coordinates":[[[78.379853951795795,17.136150735151677],[78.379854821142004,17.13601366075692],[78.379958273340009,17.136011999248481],[78.3799547959552,17.136148242890862],[78.379853951795795,17.136150735151677]]]}},
{"type":"Feature","properties":{"fid":123,"plot number":null,"part":"3","row":"1","column":"9","status":null,"sq_yards":null,"facing":null,"per_sq_ft_cost":null,"per_sq_yard_cost":null},"geometry":{"type":"Polygon","coordinates":[[[78.379751513835032,17.136151842823558],[78.379752383181241,17.136014768428801],[78.379855835379246,17.136013106920363],[78.379852357994437,17.136149350562743],[78.379751513835032,17.136151842823558]]]}},
{"type":"Feature","properties":{"fid":124,"plot number":null,"part":"3","row":"1","column":"10","status":null,"sq_yards":null,"facing":null,"per_sq_ft_cost":null,"per_sq_yard_cost":null},"geometry":{"type":"Polygon","coordinates":[[[78.379649075874269,17.13615295049544],[78.379649945220478,17.136015876100682],[78.379753397418483,17.136014214592244],[78.379749920033674,17.136150458234624],[78.379649075874269,17.13615295049544]]]}},
{"type":"Feature","properties":{"fid":125,"plot number":null,"part":"3","row":"1","column":"11","status":null,"sq_yards":null,"facing":null,"per_sq_ft_cost":null,"per_sq_yard_cost":null},"geometry":{"type":"Polygon","coordinates":[[[78.379546637913506,17.136154058167321],[78.379547507259716,17.136016983772564],[78.37965095945772,17.136015322264125],[78.379647482072912,17.136151565906506],[78.379546637913506,17.136154058167321]]]}},
{"type":"Feature","properties":{"fid":126,"plot number":null,"part":"3","row":"2","column":"1","status":null,"sq_yards":null,"facing":null,"per_sq_ft_cost":null,"per_sq_yard_cost":null},"geometry":{"type":"Polygon","coordinates":[[[78.380097803405377,17.135556080788021],[78.380219511873591,17.135895029022755],[78.38009084863576,17.135901675060396],[78.379987686219849,17.135601495456655],[78.380097803405377,17.135556080788021]]]}},
{"type":"Feature","properties":{"fid":127,"plot number":null,"part":"3","row":"2","column":"2","status":null,"sq_yards":null,"facing":null,"per_sq_ft_cost":null,"per_sq_yard_cost":null},"geometry":{"type":"Polygon","coordinates":[[[78.379986527091575,17.135898352041604],[78.379884523803923,17.135632510345918],[78.379987686219849,17.135599280107225],[78.380085052994431,17.13589945971454],[78.379986527091575,17.135898352041604]]]}},
{"type":"Feature","properties":{"fid":128,"plot number":null,"part":"3","row":"2","column":"3","status":null,"sq_yards":null,"facing":null,"per_sq_ft_cost":null,"per_sq_yard_cost":null},"geometry":{"type":"Polygon","coordinates":[[[78.379876409906046,17.13590056738747],[78.379789475285889,17.135661309881325],[78.379881046419115,17.135632510345918],[78.379983049706766,17.135901675060396],[78.379876409906046,17.13590056738747]]]}},
{"type":"Feature","properties":{"fid":129,"plot number":null,"part":"3","row":"2","column":"5","status":null,"sq_yards":null,"facing":null,"per_sq_ft_cost":null,"per_sq_yard_cost":null},"geometry":{"type":"Polygon","coordinates":[[[78.379635311226139,17.135898352041604],[78.379755860566078,17.13589945971454],[78.379682835485127,17.135696755457232],[78.379578513940956,17.135733308700303],[78.379635311226139,17.135898352041604]]]}},
{"type":"Feature","properties":{"fid":130,"plot number":null,"part":"3","row":"2","column":"6","status":null,"sq_yards":null,"facing":null,"per_sq_ft_cost":null,"per_sq_yard_cost":null},"geometry":{"type":"Polygon","coordinates":[[[78.379518239270979,17.13590056738747],[78.379473033268496,17.135772077283569],[78.379575036556147,17.135735524048133],[78.379632992969576,17.13590056738747],[78.379518239270979,17.13590056738747]]]}},
{"type":"Feature","properties":{"fid":131,"plot number":null,"part":"3","row":"2","column":"7","status":null,"sq_yards":null,"facing":null,"per_sq_ft_cost":null,"per_sq_yard_cost":null},"geometry":{"type":"Polygon","coordinates":[[[78.379514066409229,17.135900235085593],[78.379470599099136,17.13577340649201],[78.379232977804023,17.135844851430914],[78.379252103420455,17.135899681249132],[78.379514066409229,17.135900235085593]]]}},
{"type":"Feature","properties":{"fid":132,"plot number":null,"part":"3","row":"2","column":"4","status":null,"sq_yards":null,"facing":null,"per_sq_ft_cost":null,"per_sq_yard_cost":null},"geometry":{"type":"Polygon","coordinates":[[[78.37976165620745,17.13590056738747],[78.37968515374169,17.135695647783081],[78.37979063441415,17.135665740578677],[78.379871773392978,17.13589945971454],[78.37976165620745,17.13590056738747]]]}},
{"type":"Feature","properties":{"fid":133,"plot number":null,"part":"3","row":"3","column":"1","status":null,"sq_yards":null,"facing":null,"per_sq_ft_cost":null,"per_sq_yard_cost":null},"geometry":{"type":"Polygon","coordinates":[[[78.381472761357969,17.136115677345305],[78.381624607161172,17.136111246658672],[78.381644312341734,17.136025955920456],[78.381493625666792,17.136002694803238],[78.381472761357969,17.136115677345305]]]}},
{"type":"Feature","properties":{"fid":134,"plot number":null,"part":"3","row":"3","column":"2","status":null,"sq_yards":null,"facing":null,"per_sq_ft_cost":null,"per_sq_yard_cost":null},"geometry":{"type":"Polygon","coordinates":[[[78.381498262179875,17.135998264113919],[78.381515649103903,17.135907434959496],[78.381664017522311,17.135926265397597],[78.381644312341734,17.136022632903881],[78.381498262179875,17.135998264113919]]]}},
{"type":"Feature","properties":{"fid":135,"plot number":null,"part":"3","row":"3","column":"3","status":null,"sq_yards":null,"facing":null,"per_sq_ft_cost":null,"per_sq_yard_cost":null},"geometry":{"type":"Polygon","coordinates":[[[78.381518353736539,17.135902635019661],[78.381535740660567,17.135811805865238],[78.381684109078975,17.135830636303339],[78.381664403898398,17.135927003809623],[78.381518353736539,17.135902635019661]]]}},
{"type":"Feature","properties":{"fid":136,"plot number":null,"part":"3","row":"3","column":"4","status":null,"sq_yards":null,"facing":null,"per_sq_ft_cost":null,"per_sq_yard_cost":null},"geometry":{"type":"Polygon","coordinates":[[[78.381538445293202,17.135807005925404],[78.381555832217231,17.13571617677098],[78.381704200635639,17.135735007209082],[78.381684495455062,17.135831374715366],[78.381538445293202,17.135807005925404]]]}},
{"type":"Feature","properties":{"fid":137,"plot number":null,"part":"3","row":"3","column":"5","status":null,"sq_yards":null,"facing":null,"per_sq_ft_cost":null,"per_sq_yard_cost":null},"geometry":{"type":"Polygon","coordinates":[[[78.381558536849866,17.135711376831146],[78.381575923773894,17.135620547676723],[78.381724292192303,17.135639378114824],[78.381704587011725,17.135735745621108],[78.381558536849866,17.135711376831146]]]}},
{"type":"Feature","properties":{"fid":138,"plot number":null,"part":"3","row":"3","column":"6","status":null,"sq_yards":null,"facing":null,"per_sq_ft_cost":null,"per_sq_yard_cost":null},"geometry":{"type":"Polygon","coordinates":[[[78.38157862840653,17.135615747736889],[78.381596015330558,17.135524918582465],[78.381744383748966,17.135543749020567],[78.381724678568389,17.135640116526851],[78.38157862840653,17.135615747736889]]]}},
{"type":"Feature","properties":{"fid":139,"plot number":null,"part":"3","row":"3","column":"7","status":null,"sq_yards":null,"facing":null,"per_sq_ft_cost":null,"per_sq_yard_cost":null},"geometry":{"type":"Polygon","coordinates":[[[78.381598719963193,17.135520118642631],[78.381616106887222,17.135429289488208],[78.38176447530563,17.135448119926309],[78.381744770125053,17.135544487432593],[78.381598719963193,17.135520118642631]]]}},
{"type":"Feature","properties":{"fid":140,"plot number":null,"part":"3","row":"3","column":"8","status":null,"sq_yards":null,"facing":null,"per_sq_ft_cost":null,"per_sq_yard_cost":null},"geometry":{"type":"Polygon","coordinates":[[[78.381618811519857,17.135424489548374],[78.381636198443886,17.13533366039395],[78.381784566862294,17.135352490832052],[78.381764861681717,17.135448858338336],[78.381618811519857,17.135424489548374]]]}},
{"type":"Feature","properties":{"fid":141,"plot number":null,"part":"3","row":"3","column":"9","status":null,"sq_yards":null,"facing":null,"per_sq_ft_cost":null,"per_sq_yard_cost":null},"geometry":{"type":"Polygon","coordinates":[[[78.381658221880983,17.135220454966053],[78.381680245318094,17.135080887614112],[78.381877297123779,17.13511744097832],[78.381890047534739,17.135261439009803],[78.381658221880983,17.135220454966053]]]}},
{"type":"Feature","properties":{"fid":142,"plot number":null,"part":"3","row":"3","column":"10","status":null,"sq_yards":null,"facing":null,"per_sq_ft_cost":null,"per_sq_yard_cost":null},"geometry":{"type":"Polygon","coordinates":[[[78.381681404446354,17.135079779936298],[78.381699950498643,17.134986734976213],[78.381870342354162,17.135015534611693],[78.381871501482436,17.13511744097832],[78.381681404446354,17.135079779936298]]]}},
{"type":"Feature","properties":{"fid":143,"plot number":null,"part":"3","row":"3","column":"11","status":null,"sq_yards":null,"facing":null,"per_sq_ft_cost":null,"per_sq_yard_cost":null},"geometry":{"type":"Polygon","coordinates":[[[78.381701109626917,17.134986734976213],[78.381717337422671,17.134889259253789],[78.381859910199751,17.134913628189185],[78.381868024097628,17.135013319255279],[78.381701109626917,17.134986734976213]]]}},
{"type":"Feature","properties":{"fid":144,"plot number":null,"part":"3","row":"3","column":"12","status":null,"sq_yards":null,"facing":null,"per_sq_ft_cost":null,"per_sq_yard_cost":null},"geometry":{"type":"Polygon","coordinates":[[[78.38172127845877,17.13488682236008],[78.381736347126292,17.134792669623863],[78.381853419081438,17.134813715533745],[78.381859214722766,17.134912298974619],[78.38172127845877,17.13488682236008]]]}},
{"type":"Feature","properties":{"fid":145,"plot number":null,"part":"3","row":"3","column":"13","status":null,"sq_yards":null,"facing":null,"per_sq_ft_cost":null,"per_sq_yard_cost":null},"geometry":{"type":"Polygon","coordinates":[[[78.381737506254538,17.134793777303386],[78.381751415793786,17.134697409159845],[78.381844146055286,17.134707378280471],[78.381848782568369,17.134813715533745],[78.381737506254538,17.134793777303386]]]}},
{"type":"Feature","properties":{"fid":146,"plot number":null,"part":"3","row":"3","column":"14","status":null,"sq_yards":null,"facing":null,"per_sq_ft_cost":null,"per_sq_yard_cost":null},"geometry":{"type":"Polygon","coordinates":[[[78.381756052306855,17.13469519379964],[78.381769961846089,17.134599933285664],[78.381836032157395,17.134608794730884],[78.381839509542203,17.134705162920369],[78.381756052306855,17.13469519379964]]]}}
]
}
