{
"type": "FeatureCollection",
"name": "green_medows_roads",
"crs": { "type": "name", "properties": { "name": "urn:ogc:def:crs:OGC:1.3:CRS84" } },
"features": [
{"type":"Feature","properties":{"fid":1,"road_name":"30 wide road","road_type":null,"towards":null,"info":null},"geometry":{"type":"Polygon","coordinates":[[[78.381728483749256,17.134349147595653],[78.3818111799213,17.134371201314845],[78.381473856466144,17.136108658599884],[78.381402699294853,17.136106820807239],[78.381728483749256,17.134349147595653]]]}},
{"type":"Feature","properties":{"fid":2,"road_name":"40 wide road","road_type":null,"towards":null,"info":null},"geometry":{"type":"Polygon","coordinates":[[[78.379988402436553,17.135012228275702],[78.379959554934686,17.134894608815483],[78.381884644892764,17.135260331580454],[78.381888491226348,17.135365086209678],[78.379988402436553,17.135012228275702]]]}},
{"type":"Feature","properties":{"fid":3,"road_name":"30 wide road","road_type":null,"towards":null,"info":null},"geometry":{"type":"Polygon","coordinates":[[[78.380198412250138,17.133973498843538],[78.380115716078123,17.133960634146803],[78.37996340126827,17.134891852108492],[78.38005186694069,17.134907473447573],[78.380198412250138,17.133973498843538]]]}},
{"type":"Feature","properties":{"fid":4,"road_name":"30 wide road","road_type":null,"towards":null,"info":null},"geometry":{"type":"Polygon","coordinates":[[[78.380216201543007,17.135900528466738],[78.380292407027113,17.135901906812759],[78.380622278211007,17.134090016199139],[78.380540543622388,17.134073475884961],[78.380216201543007,17.135900528466738]]]}},
{"type":"Feature","properties":{"fid":5,"road_name":"40 wide road","road_type":null,"towards":null,"info":null},"geometry":{"type":"Polygon","coordinates":[[[78.380929792580943,17.134208555074277],[78.381037489921255,17.134228770998931],[78.380685165765044,17.136131263447989],[78.380594776925875,17.136136776825165],[78.380929792580943,17.134208555074277]]]}},
{"type":"Feature","properties":{"fid":6,"road_name":"30 wide road","road_type":null,"towards":null,"info":null},"geometry":{"type":"Polygon","coordinates":[[[78.381354812441799,17.134295299753607],[78.381441354947398,17.134302650995757],[78.381087876891129,17.136126301408385],[78.381008065469274,17.136131814785703],[78.381354812441799,17.134295299753607]]]}},
{"type":"Feature","properties":{"fid":7,"road_name":"40 wide road","road_type":null,"towards":null,"info":null},"geometry":{"type":"Polygon","coordinates":[[[78.380636701961848,17.135896025869648],[78.38061554712715,17.135999861243672],[78.379292408374724,17.136004088169173],[78.379278946207194,17.135902090592204],[78.380636701961848,17.135896025869648]]]}},
{"type":"Feature","properties":{"fid":8,"road_name":"main_road","road_type":null,"towards":"","info":null},"geometry":{"type":"Polygon","coordinates":[[[78.379465878019275,17.136494043317057],[78.379190865168141,17.135742386165539],[78.379063936159923,17.135793844453787],[78.379340872177863,17.136538150243734],[78.379465878019275,17.136494043317057]]]}}
]
}
